,name,region,address,phone
0,영등포구청역점,서울,서울특별시 영등포구 당산로30길 7,02-2677-7749
1,용인성복점,경기,경기도 용인시 수지구 성복2로 114,031-898-0695
2,대구평리점,대구,대구광역시 서구 국채보상로 197,053-554-5794
3,하남감일점,경기,"경기도 하남시 감일순환로 35-1, 2층",02-477-3542
4,위례창곡점,경기,"경기도 성남시 수정구 창곡동 513, 203호",031-755-1471
5,대전신성점,대전,"대전광역시 유성구 신성로 97, 1층",042-863-4111
6,대구한의대점,경북,"경상북도 경산시 한의대로1, 대구한의대M동 9호관 B1",053-811-4776
7,광주풍향점,광주,광주시 북구 군왕로 1,062-515-5045
8,울산자수정점,울산,"울산광역시 울주군 삼남면 자수정로 23, 1층",052-263-0077
9,매봉역점,서울,서울 강남구 남부순환로 2732,02-576-2211
10,광주학동점,광주,광주광역시 동구 의재로 46,062-236-1289
11,벡스코점,부산,부산광역시 해운대구 센텀남대로50 103호,051-746-8123
12,목포옥암점,전남,전남 목포시 옥암동 1345-7,061-283-6100
13,서초중앙로점,서울,"서울특별시 서초구 서초중앙로 230, 2층",02-596-1278
14,울주언양점,울산,"울산광역시 울주군 언양읍 헌양길 157, 1층",052-254-9987
15,연산과정교차로점,부산,"부산광역시 연제구 반송로 89, 1층 3호",051-791-1977
16,전북임실점,전북,전라북도 임실군 임실읍 운수로 50,063-644-1313
17,마곡나루역점,서울,"서울특별시 강서구 마곡서로 170 ,1층 108호",02-6737-0022
18,양주광적점,경기,경기도 양주시 광적면 가래비12길 11-15,031-864-5353
19,둔촌동역점,서울,서울특별시 강동구 양재대로 1319,02-474-0012
20,논현아이파크점,서울,"서울특별시 강남구 언주로 615, 103동 117호 ",02-511-4616
21,이천증포점,경기,경기도 이천시 이섭대천로 1376,031-632-1106
22,삼각지역점,서울,"서울특별시 용산구 한강대로 205, 1층",02-794-6888
23,양천향교역점,서울,서울시 강서구 강서로 447 경동미르웰플러스 1층,02-3665-2662
24,통영도남점,경남,"경상남도 통영시 도남로 270, 1층",055-648-8847
25,삼성중앙역점,서울,서울특별시 강남구 봉은사로 471,02-3445-4466
26,횡성둔내점,강원,강원 횡성군 둔내면 고원로 404,033-342-0202
27,김해율하2지구점,경남,"경상남도 김해시 율하6로 62, 1층",055-335-8801
28,강동고덕점,서울,서울특별시 강동구 동남로81길 76,02-481-7772
29,군산새만금산단점,전북,전라북도 군산시 새만금북로 424,063-465-5533
30,월계역점,서울,"서울특별시 노원구 초안산로2라길 26, 107호 ( 지번: 서울특별시 노원구 월계동 635-6 , 107호)",02-900-7111
31,경기광주능평점,경기,경기도 광주시 오포읍 오포로 116,031-766-1200
32,신도림테크노마트점,서울,"서울시 구로구 새말로 97, 신도림테크노마트 10층13호",02-2111-8200
33,정선하이원점,강원,강원도 정선군 고한읍 하이원길 500,033-591-8823
34,나주남평점,전남,"전라남도 나주시 남평읍 강변2길 27-1, 102호",061-331-7707
35,대전모다아울렛점,대전,"대전광역시 유성구 대정로5, 지상2층",042-541-8824
36,석촌역점,서울,서울특별시 송파구 송파대로 415,02-415-3232
37,김포걸포점,경기,경기 김포시 걸포2로 49,031-998-5559
38,이천마장점,경기,경기도 이천시 마장면 중앙로 92,031-633-2633
39,화천산양점,강원,강원도 화천군 상서면 영서로 7737,033-441-9298
40,노화보길점,전남,전라남도 완도군 노화읍 노화로 831,061-555-4335
41,송도센트럴파크점,인천,"인천광역시 연수구 센트럴로 160, 1층",032-831-3939
42,신대방삼거리역점,서울,"서울시 동작구 보라매로 113, 2층",02-812-6469
43,창원소답점,경남,경남 창원시 의창구 읍성로 57 1층,055-253-3525
44,서대문역점,서울,서울특별시 서대문구 통일로 105,02-365-0666
45,광주하남2지구점,광주,광주 광산구 용아로379번길 45,062-953-7177
46,남양주장현점,경기,경기도 남양주시 진접읍 장현로 47번길 6-9,031-571-9996
47,익산영등학원가점,전북,전라북도 익산시 영등동 750-1,063-842-5622
48,오산세교점,경기,"경기도 오산시 수청로 197, 2층",031-3787-666
49,가양역점,서울,"서울특별시 강서구 등촌동 75-9, 111-1호, 2호",02-3663-5185
50,동대문현대시티점,서울,서울특별시 중구 장충단로13길 20,02-2283-2185
51,스타필드안성점,경기,"경기도 안성시 공도읍 서동대로 3980, 스타필드 3층", 031-8092-1838
52,의정부용현점,경기,"경기도 의정부시 용민로 64 103,104호",031-853-8253
53,가산센트럴점,서울,서울특별시 금천구 디지털로10길 69 가산센트럴푸르지오,02-855-7776
54,태전중앙로점,경기,경기도 광주시 태전중앙로 20,031-766-6200
55,일광신도시점,부산,부산광역시 기장군 일광면 해빛로 13 제일프라자 101호,051-722-8003
56,중앙대점,서울,서울시 동작구 흑석로 99,02-3280-3999
57,의왕내손점,경기,경기도 의왕시 내손중앙로 4,031-422-8880
58,가든파이브점,서울,"서울특별시 송파구 충민로 66, 가든파이브테크노관 지하1층",02-2673-2077
59,신풍역점,서울,서울 영등포구 신길로 119 한화꿈에그린상가 112동 114호,02-834-3455
60,인천대제3기숙사점,인천,인천광역시 연수구 아카데미로 119,032-858-3211
61,부천오정점,인천,경기도 부천시 오정로 210,032-678-6677
62,대구연경점,대구,대구광역시 북구 동화천로 237,053-242-1118
63,하남미사점,경기,"경기도 하남시 미사강변대로226번길 14, 2층",031-795-2737
64,숭실대입구역점,서울,서울시 동작구 상도로 366,02-3280-5885
65,창원유니시티점,경남,"경남 창원시 의창구 중동로 46, 상가2동 128",055-251-1122
66,양천구청점,서울,서울시 양천구 목동서로 377,02-2644-2426
67,남양주지금점,경기,경기도 남양주시 다산지금로 131(다산동) 105호,031-568-3080 
68,대전판암점,대전,"대전광역시 동구 옥천로 177, 101호",042-710-5001
69,하남풍산점,경기,"경기도 하남시 덕풍동로 111, 111호",031-793-1947
70,동탄호수공원점,경기,경기도 화성시 동탄순환대로 127-17,031-376-8613
71,조치원죽림점,세종시,세종특별자치시 조치원읍 세종로 2282 럭스스퀘어 201호,044-905-0092 
72,경기광주양벌점,경기,"경기도 광주시 오포읍 양벌로 299, 1층 108, 109호",031-763-0229
73,스타필드고양점,경기,경기도 고양시 덕양구 고양대로 1972-8,031-5173-3438
74,광교역점,경기,경기도 수원시 영통구 대학3로 1,031-214-3459
75,홍성점,충남,"충남 홍성군 홍성읍 아문길29번길 69, 2층",041-631-9288
76,광주첨단2지구점,광주,"광주광역시 북구 첨단연신로 97, 솔로몬빌딩 102호",062-571-1777
77,진접해밀초점,경기,경기도 남양주시 진접읍 해밀예당3로 95,031-571-7700
78,용인구성점,경기,경기도 용인시 기흥구 구성로 110,031-281-4114
79,민락수변점,부산,부산 수영구 광안해변로 311 센텀프리모 상가동 114호,051-755-9245
80,오류동역남부점,서울,서울시 구로구 오류로8길 22,02-2066-9370
81,송산그린시티점,경기,경기도 화성시 수노을중앙로 126,031-355-3181
82,오류동역점,서울,"서울시 구로구 경인로 216, 2층",02-3666-2244
83,센텀신세계점,부산,"부산 해운대구 센텀남대로 35,신세계백화점 4층",
84,대전탄방점,대전,"대전광역시 서구 계룡로 589 ,1층",042-484-9982
85,시흥은계점,경기,경기도 시흥시 은계번영길 11,031-315-0061
86,미금역점,경기,"경기도 성남시 분당구 돌마로 75, 2층",031-712-9100
87,창원시티세븐점,경남,"경상남도 창원시 의창구 원이대로 332, 1층",055-600-0996
88,포이사거리점,서울,서울시 강남구 개포동 논현로 78,02-577-4285
89,광장동점,서울,"서울 광진구 아차산로 502 101호, 102호",02-458-0003
90,만덕2호점,부산,부산광역시 북구 만덕1로10번길 22,051-336-8886
91,잠실야구장점,서울,서울시 송파구 올림픽로 25,02-3432-8662
92,경주월드점,경북,"경상북도 경주시 보문로 544, 경주월드버클리클럽 2층",070-7113-6374
93,청주남문로점,충북,충청북도 청주시 상당구 성안로 21 2층,043-258-6767
94,신설동역점,서울,서울시 동대문구 왕산로 11-1,02-926-9282
95,롯데아울렛고양점,경기,경기도 고양시 덕양구 권율대로 420,031-8035-2736
96,강남세곡점,서울,"서울특별시 강남구 자곡로 201,1층",02-459-3311
97,아산퍼스트빌리지점,충남,"충청남도 아산시 둔포면 해위안길 127, 4층",041 536 0792
98,원주기업도시점,강원,"강원 원주시 지정면 신지정로 322 (118,119호)",033-743-9996
99,한국해양대학교점,부산,"부산광역시 영도구 태종로 727, 2층",051-410-4131
100,순천용당점,전남,전남 순천시 삼산로 61 (용당동) 101호,061-755-8228
101,김포대곶점,인천,경기도 김포시 대곶면 율생로 84,031-997-4793
102,파주문산터미널점,경기,경기도 파주시 문산읍 문향로67번길 9,031-952-4433
103,인천도화점,인천,인천광역시 미추홀구 숙골로 102,032-763-7788
104,삼양사거리점,서울,서울 강북구 솔샘로 254,02-984-7337
105,선유도역점,서울,서울특별시 영등포구 양평로 119-1,02-2679-8864
106,평택고덕점,경기,경기도 평택시 고덕면 여염리 3608-1,031-668-8825
107,한신대점,경기,경기도 오산시 양산동 438-1,031-374-7466
108,구로항동점,서울,"서울시 구로구 서해안로 2098 , 항동프라자",02-3666-0255
109,구로구일역점,서울,서울특별시 구로구 구일로110,02-853-1122
110,부산괘법점,부산,"부산광역시 사상구 사상로 254, 1층",051-311-4807
111,이대점,서울,서울시 서대문구 신촌로 169-1,02-365-1799
112,충주호암점,충북,충청북도 충주시 호암토성5길 10-1,043-855-5430
113,송파마천점,서울,서울특별시 송파구 마천로 315 아울렛라이프상가,02-402-1144
114,일곡점,광주,광주 북구 송해로 81 1층,062-576-5045
115,원통점,강원,강원 인제군 북면 원통로 171-2,033-461-1118
116,대구신매점,대구,대구광역시 수성구 신매로 100,053-795-7888
117,용인남사점,경기,경기도 용인시 처인구 남사면 한숲로 84,031-336-7090
118,세종나성점,세종시,"세종시 나성북로 30, 어반아트리움 파인앤유퍼스트원",041-864-7710
119,서현역점,경기,"경기도 성남시 분당구 황새울로360번길 24, 대망코어 2층",031-701-0630
120,이천아울렛점,경기,"경기도 이천시 호법면 프리미엄아울렛로 177-74, 백자동3층",031-887-4549
121,당산역점,서울,서울특별시 영등포구 양평로 59,02-2679-0700
122,김포마산점,인천,"경기도 김포시 김포한강8로 166, 104, 105호",031-988-9281
123,울산중산점,울산,"울산광역시 북구 중산로 6, 1층 ",052-285-0222
124,부산하단역점,부산,"부산광역시 사하구 하신중앙로 322,명진빌딩 1층",051-293-5558
125,수영광안점,부산,"부산광역시 수영구 광일로 10, BY빌딩 2층",051-755-8001
126,정선읍점,강원,강원도 정선군 정선읍 봉양리 324-33,033-562-9279
127,제주터미널점,제주,제주 특별 자치도 제주시 서광로 167,064-753-9922
128,엄궁롯데점,부산,"부산광역시 사상구 엄궁동 726 ( 도로명 주소 : 부산광역시 사상구 엄궁복로 40, 상가1동 101호)",051-311-8281
129,창원중앙점,경남,"경상남도 창원시 성산구 중앙대로 89, 1층",055-289-8934
130,평창올림픽점,강원,강원도 평창군 대관령면 눈마을길 23,033-333-0992
131,청주테크노폴리스점,충북,충청북도 청주시 흥덕구 송화로166번길 22,043-276-1009
132,남해스포츠파크점,경남,경상남도 남해군 서면 남서대로 1680,055-862-9997
133,상암MBC점,서울,서울특별시 마포구 성암로 267,02-304-2626
134,강남압구정점,서울,서울특별시 강남구 논현로 175길 18,02-540-5180
135,행당역점,서울,"서울시 성동구 고산자로 201, 1층",02-2293-3336
136,울산달동점,울산,울산 남구 삼산로 274 더블유센터102호,052-265-4832
137,진해장천점,경남,경남 창원시 진해구 충장로 662 (장천동) 105호,055-542-9300
138,서충주기업도시점,충북,충북 충주시 중앙탑면 원앙9길 18-1,043-845-2020
139,대구신서혁신도시점,대구,대구광역시 동구 이노밸리로 325 103호,053-964-7988
140,천안원마트점,충남,충남 천안시 서북구 음봉로 909-7 (백석동),041-567-9294
141,부천고강점,경기,경기도 부천시 고리울로8번길 21,032-677-3355
142,일산하늘마을점,경기,"경기 고양시 일산동구 중산로 63, 103호",031-975-7711
143,상봉역점,서울,서울특별시 중랑구 망우로 297,02-432-8892
144,잠실새내역점,서울,"서울특별시 송파구 올림픽로 116-1, 2층",02-424-2554
145,광주오치매곡점,전남,광주광역시 북구 서하로 187,062-251-5045
146,평택비전점,경기,경기도 평택시 평남로 717,031-651-0089
147,군자역점,서울,서울특별시 광진구 능동로 300,02-444-3400
148,NC백화점청주점,충북,충청북도 청주시 흥덕구 2순환로 1233 드림플러스,043-716-6057
149,대구서재점,대구,대구광역시 달성군 다사읍 서재로 113,053-582-0022
150,동여의도점,서울,서울특별시 영등포구 여의대방로 394,02-780-6469
151,이천하이닉스점,경기,경기 이천시 부발읍 경충대로2050번길 15-87,031-635-2323
152,부평로데오점,인천,인천광역시 부평구 부평대로12번길 8,032-220-9491
153,울산박상진로점,울산,울산 북구 송정16길 28(송정동) 1층,052-700-5050
154,강남선릉점,서울,서울시 강남구 선릉로93길 32,02-568-7988
155,영천창신점,경북,경북 영천시 언하공단로 87(망정동) 1층,054-338-2333
156,목포해상케이블카점,전남,전남 목포시 달동 산192-18,
157,오창과학단지점,충북,충청북도 청주시 청원구 오창읍 과학산업5로 118-4,043-215-0011
158,용인양지점,경기,경기도 용인시 처인구 양지로 132,031-333-7970
159,강남대성학원점,서울,서울시 강남구 강남대로78길 33,02-566-1318
160,대구가톨릭대점,경북,경북 경산시 하양읍 하양로 13-13 (기숙사 식당),070-4107-1545
161,낙민안락점,부산,부산 동래구 충렬대로446번길 67,051-532-3495
162,은평구청점,서울,서울시 은평구 은평로 191-1,02-355-7449
163,언양동문점,울산,울산 울주군 삼남면 울산역로 274 301동 211호,052-263-2777
164,부산대저점,부산,부산 강서구 낙동북로166번길 38 1층,051-973-8200
165,문정역점,서울,"서울시 송파구 송파대로 167,테라타워B동 128호",02-448-1318
166,평택동삭점,경기,경기 평택시 상서재로 80 (경기도 평택시 칠원동 446 센트럴자이5단지 1층),031-655-4205
167,양주남면신산점,경기,"경기도 양주시 남면 개나리11길 7, 1층",031-857-5578
168,문경점촌점,경북,경상북도 문경시 점촌5길 7,054-555-1400
169,화성봉담점,경기,경기도 화성시 봉담읍 동화길 51,031-5183-3939
170,양재역점,서울,"서울특별시 강남구 남부순환로 2621, 1층",02-574-0606
171,여수웅천점,전남,전라남도 여수시 웅천중앙로 76,061-682-4285
172,동작보라매점,서울,서울특별시 동작구 여의대방로82,02-832-4233
173,관악난곡점,서울,서울특별시 관악구 난곡로34길 1,02-863-3190
174,공룡루지테마파크점,전남,전라남도 여수시 소라면 안심산길 155,
175,용인신봉점,경기,경기도 용인시 수지구 신봉3로 6,031-272-8245
176,구로시장점,서울,서울 구로구 도림로 67 ,02-866-7745
177,의정부행복로점,경기,경기도 의정부시 시민로 121번길 31,031-848-8982
178,김해주촌점,경남,경상남도 김해시 주촌면 천곡로 14,055-336-0245
179,서산터미널점,충남,충청남도 서산시 안견로 201,041-662-9280
180,구미산동점,경북,경상북도 구미시 산동면 신당1로 2길 13,054-471-3133
181,가산디지털단지역점,서울,서울특별시 금천구 벚꽃로 298,02-858-8253
182,성북종암점,서울,서울특별시 성북구 종암로 86-1,02-6082-9707
183,성남세이브존점,경기,경기 성남시 수정구 산성대로 337,031-732-9924
184,낙성대역점,서울,서울시 관악구 남부순환로 1941,02-883-2628
185,건대스타시티점,서울,서울시 광진구 능동로 92,02-447-0017
186,마포공덕역점,서울,"서울시 마포구 마포대로 137,1층",02-718-3868
187,제주연북로점,제주,제주특별자치도 제주시 원노형남2길 35,064-745-9200
188,안성한경대점,경기,경기도 안성시 중앙로 324-3,031-674-1212
189,중랑역점,서울,"서울시 중랑구 망우로 211, 1층",02-433-2344
190,홈플러스동대문점,서울,서울특별시 동대문구 천호대로 133,02-960-7785
191,강서방화사거리점,서울,"서울시 강서구 양천로 87, 1층",02-2664-6610
192,인덕원역점,경기,경기 안양시 동안구 흥안대로 521,031-422-8280
193,연천역점,경기,"경기도 연천군 연천읍 연천역로 7,1층",031-834-1919
194,서초교대점,서울,서울특별시 서초중앙로22길 25 ,02-2055-1175
195,목동파리공원점,서울,서울시 양천구 목동동로 393,02-2643-1456
196,전주에코시티점,전북,전주시덕진구 세병로137 에코시티자이2차 213동 106호,063-254-7899
197,광명철산점,경기,"경기도 광명시 오리로856번길 8,2층",02-2066-5515
198,동두천보산역점,경기,경기도 동두천시 평화로 2549,031-858-4727
199,안산신길점,경기,경기도 안산시 신길로1길 94,031-494-9295
200,강남역점,서울,서울시 강남구 강남대로100길 10,02-567-4802
201,천안풍세산단점,충남,충청남도 천안시 동남구 풍세면 보성리 580-59,041-568-8688
202,목감역점,경기,경기도 시흥시 솔고개길 4-3,031-403-2225
203,제주관광대점,제주,제주 제주시 애월읍 광령중길 133-2,064-747-5599
204,수지동천점,경기,경기도 용인시 수지구 손곡로 100,031-265-8866
205,서판교점,경기,경기도 성남시 분당구 운중로 142,031-707-0912
206,홍제역점,서울,서울시 서대문구 통일로 465 ,02-379-7696‬
207,천안성성점,충남,충남 천안시 성성6로 89,041-523-9928
208,상도역점,서울,서울 동작구 상도로 283-2,02-814-8255
209,남해창선점,경남,경상남도 남해군 창선면 동부대로 2807-3,055-867-2807
210,쌍문역점,서울,서울특별시 도봉구 도봉로 496,02-900-0071
211,용인상갈점,경기,경기도 용인시 기흥구 금화로 103,031-284-9284
212,제주애월고점,제주,"제주 제주시 애월읍 일주서로 6365, 1층",064-799-3355
213,세종도담점,세종시,"세종특별자치시 보듬4로 9, 카림에비뉴 1동",044-867-9278
214,충주칠금점,충북,"충북 충주시 계명대로 35, 1충",043-855-2559
215,부산동삼동점,부산,부산시 영도구 동삼로 80-1 1층,051-404-3666
216,이천롯데마트점,경기,경기도 이천시 구만리로 191,031-638-6600
217,대구동서변점,대구,"대구광역시 북구 호국로43길 8-18(서변동), 1층",053-281-1001
218,경북성주점,경북,경북 성주군 성주읍 성주로 3216-1,054-933-8827
219,울산진장CGV점,울산,울산광역시 북구 진장유통로 51-10,052-980-1010
220,울산복산점,울산,울산광역시 중구 복산동 화합로 479,052-285-2020
221,전북순창점,전북,전라북도 순창군 순창읍 장류로 362,063-653-6787
222,일산마두역점,경기,"경기도 고양시 일산동구 강석로 123,A동 140호",031-901-3212
223,부산남구청점,부산,"부산광역시 남구 못골로 40,2층",051-637-1010
224,한티역점,서울,"선릉로64길 11-2, 1층",02-6235-4868
225,부천옥길점,경기,"경기도 부천시 범안로219번길 19 ,1층",032-344-6257
226,남양주다산진건점,경기,"경기도 남양주시 다산순환로 424,2층",031-555-2299
227,천안역점,충남,"충청남도 천안시 동남구 대흥로 227, 1층",041-566-9289
228,대치동학원가점,서울,"서울시 강남구 삼성로229,1층",02-3437-8383
229,제주성산점,제주,제주특별자치도 서귀포시 성산읍 일주동로 4234,064-782-9995
230,대전카이스트점,대전,대전광역시 유성구 어은로42번길 5 1층,070-4233-1112
231,경주용황점,경북,경상북도 경주시 용황구획4길 41,054-744-3399
232,구산역점,서울,서울 은평구 연서로 128(역촌동),02-385-1977
233,구로디지털단지역점,서울,"서울 구로구 시흥대로 577(구로동), 1층",02-853-8864
234,남양주금곡점,경기,경기도 남양주시 경춘로 996,031-593-9998
235,전주만성지구점,전북,전북 전주시 덕진구 만성중앙로 56(만성동) ,063-211-8866
236,경북예천점,경북,경상북도 예천군 예천읍 중앙로 78,054-654-0001
237,개봉역점,서울,"서울 구로구 남부순환로97길 3(개봉동), 2층",02-2060-9370
238,충북단양점,충북,"충북 단양군 단양읍 삼봉로 293-1, 2층",043-421-0915
239,경남고성점,경남,"경상남도 고성군 고성읍 송학로 149번길 2,1층 ",055-674-5829
240,경산중산점,경북,"경북 경산시 펜타힐즈2로 37(중산동), 1층",053-815-8700
241,영등포역점,서울,"서울특별시 영등포구 영중로 16-1, 1,2층 ",02-2679-9786
242,화곡역점,서울,"서울 강서구 화곡로 145(화곡동), 1층",02-2606-9096
243,구로신도림점,서울,"서울 구로구 경인로59길 8(신도림동), 태영프라자 207호, 2층",02-2068-8563
244,하동진교점,경남,"경남 하동군 진교면 진교시장길 17-15,1층 ",055-882-0809
245,부산센텀점,부산,"부산광역시 해운대구 센텀중앙로 90,1층 ",051-783-8259
246,경북도청점,경북,경북 예천군 호명면 새움2로 18 ,054-655-0092
247,의정부금오지구점,경기,경기 의정부시 청사로47번길 18(금오동) ,031-851-8510
248,일산가좌점,경기,"경기도 고양시 일산서구 가좌3로 25,1층 ",031-922-2252
249,경남사천점,경남,"경상남도 사천시 사천읍 평화1길 15,1층 ",055-852-2266
250,안양석수점,경기,경기도 안양시 만안구 충훈로 83 ,031-471-6070
251,대전대점,대전,"대전광역시 동구 대학로 62-29,2층 ",042-273-3000
252,다대낫개역점,부산,부산광역시 사하구 다대로 429번길 15 ,051-262-9003
253,중화역점,서울,서울 중랑구 동일로 812(중화동) ,02-433-3309
254,강동강일점,서울,서울특별시 강동구 아리수로93길 27 강일타워,02-429-8854
255,서울시청점,서울,"서울시 중구 무교로12(무교동21-3),2층",02-3789-8503
256,수원곡반점,경기,"경기 수원시 권선구 곡선로 48(곡반정동), 1층",031-222-3474
257,동두천지행점,경기,경기 동두천시 중앙로 134-26(지행동),031-862-9995
258,미사역점,경기,경기도 하남시 미사강변중앙로 204번길 45 1층 ,031-794-6969
259,오산수청점,경기,"경기 오산시 내삼미로 93(수청동), 백현프라자 1층",031-376-9292
260,인천하늘도시점,인천,"인천 중구 하늘별빛로65번길 11(중산동), 1층",032-751-9669
261,구리한대병원점,경기,"경기도 구리시 경춘로 168,1층 ",031-555-0802
262,해군교육사령부점(기초군사학교),경남,"경상남도 창원시 진해구 진희로 111 1층 ( 경화동, 복지관) ",055-544-1004
263,부산동래메가점,부산,"부산광역시 동래구 명륜로 129번길 2, 2층 ",051-553-5000
264,충북광혜원점,충북,"충청북도 진천군 광혜원면 중리1길 5,1층 ",043-536-0880
265,양산에덴밸리점,경남,"경상남도 양산시 원동면 어실로 1206,2층 ",055-379-8054
266,세종대평점,세종시,"세종특별자치시 시청대로 20,1층 ",044-866-9289
267,양주옥정중앙점,경기,"경기도 양주시 옥정로 196,1층",031-862-7750
268,위례중앙점,서울,서울특별시 송파구 위례광장로 270 ,02-400-5833
269,경북영덕점,경북,"경상북도 영덕군 영덕읍 덕곡길 106-1,1층",054-732-1003
270,대전대흥동점,대전,"대전광역시 중구 선화서로 7,1층",042-242-5214
271,광주양산점,광주,"광주광역시 북구 양산택지로 57,1층",062-572-9231
272,포항우현점,경북,경북 포항시 북구 우창동로 41(우현동),054-254-7004
273,용인둔전점,경기,"경기도 용인시 처인구 포곡읍 포곡로 99,1층",031-333-9991
274,전주안골점,전북,"전북 전주시 덕진구 안덕원로 246(인후동1가), 1층",063-242-1115
275,노원중계점,서울,"서울 노원구 한글비석로 233(중계동), 1층",02-931-0777
276,영등포문래점,서울,"서울 영등포구 문래로 77(문래동3가), 1층",02-562-2707
277,의정부신곡점,경기,"경기도 의정부시 신곡동 발곡로 27,1층 ",031-878-3309
278,강원횡성점,강원,"강원도 횡성군 횡성읍 태기로 36,1층 ",033-343-6999
279,아산풍기점,충남,"충남 아산시 어의정로 184, 1층",041-531-9282
280,시흥배곧1호점,경기,"경기도 시흥시 서울대학로278번길 43-7(정왕동),1층",031-497-3399
281,통영중앙점,경남,"경상남도 통영시 중앙로 141,1층 ",055-648-1999
282,청주가경강서점,충북,"충북 청주시 흥덕구 서현북로 60,1층",043-233-7915
283,구리갈매점,경기,"경기도 구리시 갈매중앙로 89-10,1층",031-574-4600
284,봉천현대시장점,서울,"서울 관악구 양녕로 43, 1층",02-876-1019
285,남양주청학점,경기,경기도 남양주시 별내면 청학로중앙길 13-23,031-846-0222
286,마곡역홈앤쇼핑점,서울,"서울 강서구 공항대로 140(마곡동, 마곡엠밸리12단지), 1층",02-2661-4992
287,금천시흥사거리점,서울,"서울특별시 금천구 시흥대로204(시흥동),1층",02-804-7779
288,강동역점,서울,"서울 강동구 성안로 149(천호동), 1층",02-471-2030
289,아차산역점,서울,"서울 광진구 천호대로 655(중곡동), 2층",02-453-7780
290,일산국립암센터점,경기,"경기도 고양시 일산동구 일산로 323,1층",031-920-0263
291,마포대흥역점,서울,"서울 마포구 백범로 99(대흥동), 1층",02-704-2800
292,상계역점,서울,"서울 노원구 덕릉로83길 26(중계동), 2층",02-939-5279
293,울산동구현대점,울산,울산광역시 동구 방어진순환도로 899 현대백화점 B1층,052-250-4955
294,울산문현점,울산,"울산광역시 동구 문현2길 5,1층",052-232-1620
295,용인역북점,경기,경기 용인시 처인구 명지로16번길 9-23(역북동),031-333-0220
296,고대하나스퀘어점,서울,서울 성북구 인촌로22길 6-3 하나스퀘어 지하 1층,02-3290-2635
297,한성대입구역점,서울,서울시 성북구 삼선교로 8-1(삼선동1가 8-1) 1층,02-742-5185
298,메가박스웅천점,전남,전라남도 여수시 신월로 96,
299,부산문현금융단지점,부산,"부산광역시 남구 문현금융로 22,2층",051-636-1112
300,평택이충점,경기,경기 평택시 이충로35번길 28(이충동),031-668-1112
301,마곡LG사이언스파크점,서울,서울 강서구 마곡중앙10로 10(마곡동) E동 지하1층,*특수매장으로 일반전화가 없습니다
302,김해한림점,경남,경상남도 김해시 한림면 김해대로 1464 104호,055-345-1199
303,천안불무점,충남,충남 천안시 서북구 불당23로 70(불당동) 정우프라자 1층,041-565-6688
304,김해메가마트점,경남,경상남도 김해시 김해대로 2492번길 20 김해메가마트,055-335-0203
305,광주상무점,광주,광주 서구 치평로 79(치평동) 상무프라자,062-376-0010
306,화성남양점,경기,경기도 화성시 남양읍 남양리 1189-2,031-357-0492
307,수원정자점,경기,"경기 수원시 장안구 대평로 80(정자동), 2층",031-268-1231
308,경남하동점,경남,경상남도 하동군 하동읍 시장1길 25,055-884-0177
309,강릉유천점,강원,강원 강릉시 선수촌로 67(홍제동) ,033-655-9272
310,대구논공점,대구,대구시 달성군 논공읍 논공로23길 1,053-614-3165
311,대구구지점,대구,대구 달성군 구지면 과학마을로 60 ,053-616-7782
312,은평불광1호점,서울,서울시 은평구 불광로80,02-382-7005
313,울산청량점,울산,울산 울주군 청량면 상남길 54 대산빌딩 104호 맘스터치,052-267-9991
314,김포트레이더스점,경기,경기도 김포시 김포대로 715,031-984-9880
315,정관CGV점,부산,부산광역시 기장군 정관읍 정관중앙로 45 910호,070-8801-9797
316,남성역점,서울,서울 동작구 사당로 191(사당동) ,02-533-7782
317,미사강변대로점,경기,경기도 하남시 미사강변대로 80 그린프라자 2층,031-793-0605
318,동탄11자상가점,경기,경기 화성시 동탄순환대로 690(영천동) 애플스퀘어 101호,031-377-8389
319,창동역점,서울,서울특별시 도봉구 노해로 63길 67,02-900-7925
320,광주곤지암점,경기,경기 광주시 곤지암읍 곤지암로 36 1층,031-797-1436
321,인천서창2지구점,인천,인천 남동구 서창남순환로215번길 27(서창동) ,032-473-3382
322,춘천메가박스점,강원,강원 춘천시 춘천로17번길 17(온의동) 뉴타운 1층 105호,033-253-8800
323,창원상남점,경남,경남 창원시 성산구 마디미로16번길 3 2층,055-262-2269
324,미아사거리역점,서울,"서울 강북구 도봉로10길 26(미아동) 1층, B1층",02-6326-9707
325,동의의료원점,부산,부산 부산진구 양정로 52-57(양정동) 동의의료원 본관,051-868-0991
326,신금호역점,서울,서울 성동구 금호로 160(금호동1가) 1층,02-2296-8982
327,구파발역점,서울,서울 은평구 진관3로 21 (진관동) 엘크루상가 124호,02-385-8500
328,(신)원주단계점,강원,강원 원주시 장미공원길 75-10(단계동) ,033-742-8292
329,논산연무점,충남,충남 논산시 연무읍 안심로 112,041-742-0114
330,파주금촌역점,경기,경기도 파주시 새꽃로 196,031-948-7666
331,시흥휴게소점,경기,경기도 시흥시 조남동 산 15-10,070-4229-3255‬
332,일산대화역점,경기,경기도 고양시 일산서구 중앙로 1581 1층,031-923-3269
333,천안쌍용고점,충남,"충남 천안시 서북구 월봉2길 16, 101호 1층",041-592-0011
334,신정네거리역점,서울,서울 양천구 중앙로 269(신정동) ,02-2065-7779
335,중곡역점,서울,"서울 광진구 능동로 409-1(중곡동) 1,2층",02-462-3300
336,대전가오점,대전,대전시 동구 은어송로 42-3 1층,042-282-3001
337,포미점,전남,전남 목포시 용해지구로 2 ,061-273-9282
338,충북대소점,충북,충북 음성군 대소면 대동로 876 1층,043-882-9997
339,의령점,경남,경남 의령군 의령읍 의병로 227-1,055-572-3388
340,천안법원점,충남,충남 천안시 동남구 청수5로 3(청당동) 1층,041-555-9388
341,안양평촌학원가점,경기,경기 안양시 동안구 귀인로 190(평촌동) 1층,031-381-1270
342,의정부경민점,경기,경기 의정부시 호국로1111번길 19(가능동) 1층,031-878-8982
343,세종새롬점,세종시,세종특별자치시 새롬중앙로 55(새롬동) 1층,044-867-0626
344,대전태평점,대전,대전시 중구 태평로 71 1층 (태평동),042-535-3311
345,광주신현리점,경기,"경기도 광주시 오포읍 신현로 84, 1동 1층",031-717-7183
346,파주봉일천점,경기,경기도 파주시 봉천로 42-1,031-944-7002
347,대전송강점,충북,대전 유성구 봉산로 15,042-936-1575
348,왕십리뉴타운점,서울,서울시 성동구 왕십리로 410,02-2281-8871
349,울산모다아울렛점,울산,울산 북구 진장유통로 78-6 4층 모다아울렛,052-935-3073
350,처인구청점,경기,경기 용인시 처인구 금령로 86(김량장동) ,031-321-0017
351,청주하복대점,충북,충북 청주시 흥덕구 증안로 20 1층,043-235-1008
352,부천약대점,경기,경기 부천시 중동로 416-1(삼정동) ,032-673-4512
353,안산반월점,경기,경기 안산시 상록구 건건로 123(건건동) ,031-438-7799
354,순천만국가정원점,전남,전남 순천시 국가정원1호길 162-11,*특수매장으로 일반전화가 없습니다
355,전남보성읍점,전남,전라남도 보성군 보성읍 중앙로 57 1층,061-852-4266
356,안성공도점,경기,"경기 안성시 공도읍 공도4로 3, 1층",031-651-9070
357,간성점,강원,강원 고성군 간성읍 간성로 63 1층,033-682-9500
358,남양주퇴계원점,경기,경기도 남양주시 퇴계원로 26 1층,031-574-1912
359,(신)평릉부곡점,강원,강원도 동해시 발한로 67-1,033-534-2117
360,대전도안점,대전,대전 유성구 봉명서로 31-13 1층,042-825-4111
361,관악대학동점,서울,"서울 관악구 신림로 89 대일고시원, 제비호 1층",02-6465-5362
362,인제읍점,강원,강원도 인제군 인제읍 비봉로 7 1층,033-461-2366
363,안동대점,경북,경북 안동시 경동로 1375 안동대학교 박물관 1층,054-820-6727
364,충주성서점,충북,충북 충주시 예성로 156-1(성서동) ,043-846-6780
365,안성진사리점,경기,경기 안성시 공도읍 진사길 18 1층,031-618-9991
366,영남대점,경북,경북 경산시 청운로 13-3 1층,053-811-7792
367,관악사당역점,서울,"서울 관악구 과천대로 947(남현동), 2층",02-585-2229
368,서대전점,대전,대전 중구 계백로 1689(오류동) 1층,042-522-6633
369,경인교대점,인천,인천 계양구 계양대로 166(계산동) 1층,032-555-0770
370,트리플스트리트점,인천,인천 연수구 송도과학로16번길 33-4(송도동) B1층 101호,032-310-9699
371,대구동성로점,대구,대구시 중구 동성로 6길 75 1층,053-423-5777
372,오남양지점,경기,경기도 남양주시 오남읍 진건오남로 812 1층,031-574-7503
373,대전반석점,대전,"대전 유성구 반석로 32 양지타워 1 ,2층",042-825-7133
374,화성병점동점,경기,경기 화성시 병점2로 44(병점동) ,031-236-1006
375,남양주평내점,경기,경기 남양주시 평내로29번길 49(평내동) 엠투프라자 제1층,031-594-2344
376,관악신대방역점,서울,서울 관악구 신사로 90(신림동) ,02-852-5888
377,울산약사점,울산,울산 중구 곽남7길 3(남외동) 1층,052-294-0998
378,수원세류점,경기,"경기 수원시 권선구 세지로 99(세류동, 삼익아파트) 상가동 102~103호",031-222-9759
379,용인흥덕점,경기,경기 용인시 기흥구 흥덕중앙로 41 ,031-216-4982
380,대구대점,경북,경북 경산시 진량읍 대구대로 252-2,053-246-2004
381,덕천점,부산,부산 북구 만덕대로 20-1,051-336-4000
382,NC백화점서면점,부산,부산 진구 동천로 92 (nc백화점 6층),051-794-7312
383,울산신선도원점,울산,울산시 북구 진장17길 10 2층 신선도원몰,052-916-0254
384,광양제철점,전남,전남 광양시 금호로 26,061-795-7931
385,제주남원점,제주,제주 서귀포시 남원읍 태위로 677-2 ,064-764-8299
386,순천모다아울렛점,전남,전남 순천시 해룡면 상성길 70 모다아울렛 3층,061-902-8093
387,아산순천향대점,충남,"충남 아산시 신창면 순천향로 14, 2층",041-542-4626
388,평창읍점,강원,강원도 평창군 평창읍 백오로 54,033-332-9333
389,모란역점,경기,경기도 성남시 중원구 성남대로 1144,031-755-5592
390,목포MBC점,전남,전남 목포시 영산로 333-1,061-272-3327
391,운정산내마을점,경기,"경기도 파주시 청암로17번길 53,108.109호",031-935-5011
392,용인보정점,경기,경기도 용인시 기흥구 죽전로 50,031-261-0566
393,노원하계점,서울,서울 노원구 노원로 257(하계동) ,02-979-1087
394,서울외대점,서울,서울 동대문구 이문로 108 2층,02-959-6632
395,파주LG디스플레이점,경기,경기도 파주시 월롱면 엘씨디로 201 복지동A,031-943-4030
396,시흥거모점,경기,"경기 시흥시 군자로 519(거모동, 해오름아파트102동) 101호",031-493-7700
397,강원속초점,강원,강원 속초시 중앙로 107-1(금호동) ,033-637-6008
398,진해자은점,경남,"경남 창원시 진해구 냉천로 160 ,204호(자은동)",055-551-0052 
399,계룡엄사점,충남,충남 계룡시 엄사면 엄사중앙로 106(엄사리 180-3),042-841-9288
400,고양중부대점,경기,경기 고양시 덕양구 동헌로 307번길 6,031-969-1001
401,인천길병원점,인천,인천 남동구 구월남로 182(구월동) ,032-466-9977
402,제주표선점,제주,제주 서귀포시 표선면 표선중앙로 8-4,064-787-9582
403,대구월성CGV점,대구,대구시 달서구 조암로 29 이래타워 1층 106호,053-638-4242
404,창원가음점,경남,경남 창원시 성산구 원이대로883길 15-24 201호,055-262-0019
405,고흥녹동점,전남,전남 고흥군 도양읍 우주항공로 54,061-842-4422
406,성남신흥점,경기,경기도 성남시 수정구 수정로 192 1층,031-751-3388
407,대전가수원점,충북,대전 서구 원도안로 16 (가수원동),042-542-4888
408,부평갈산점,인천,인천 부평구 주부토로 223(갈산동) 금강프라자,032-505-6500
409,송파풍납점,서울,서울 송파구 토성로 65(풍납동) ,02-477-7773
410,고양능곡점,경기,고양시 덕양구 지도로 101,031-972-8982
411,강남논현점,서울,서울 강남구 강남대로120길 47(논현동) ,02-3446-7776
412,창녕영산점,경남,경남 창녕군 영산면 영산계성로 64,055-521-2525
413,양산증산점,경남,경상남도 양산시 물금읍 야리로 112 ,055-366-6777
414,수원탑동점,경기,경기도 수원시 권선구 금호로 222,031-297-3690
415,종로대학로점,서울,서울 종로구 대명길 17(명륜4가) ,02-744-3618
416,창원안민점,경남,경남 창원시 성산구 안민안길 46,055-274-1578
417,충북보은점,충북,충북 보은군 보은읍 뱃들로 55-6,043-544-7060
418,우장산역점,서울,서울 강서구 강서로 271,02-2664-1212
419,청주수곡분평점,충북,충북 청주시 서원구 청남로 1999,043-286-3900
420,일산백석점,경기,경기도 고양시 일산동구 중앙로 1080,031-907-2141
421,동아대병원점,부산,부산 서구 보수대로 266(동대신동3가) ,051-255-9027
422,대곡역점,대구,대구시 달서구 비슬로 2728,053-643-7979
423,부산거제홈타운점,부산,부산 연제구 아시아드대로 88(거제동),051-505-1718
424,청주내수점,충북,충북 청주시 청원구 내수읍 내수로 724,043-215-4340
425,암사역점,서울,서울시 강동구 올림픽로 766,02-6406-2554
426,화서역점,경기,경기도 수원시 팔달구 덕영대로 697번길 17,031-255-9888
427,진주평거점,경남,경남 진주시 진양호로 84 성운빌딩1층,055-748-7075
428,한림대점,강원,강원도 춘천시 성심로 4-1,033-255-7992
429,천마산점,경기,경기도 남양주시 화도읍 경춘로 1661,031-511-1633
430,청주우암점,충북,충북 청주시 청원구 직지대로 889(우암동) 1층,043-221-7799
431,제주한림점,제주,제주특별자치도 제주시 한림읍 명랑로 2,064-796-3699
432,둔포테크노밸리점,충남,충남 아산시 둔포면 아산밸리중앙로 89 삼성플라자104,041-532-4240
433,종각역점,서울,서울시 종로구 종로2가 102-1,02-738-7771
434,정평점,경북,경북 경산시 대학로 36,053-815-5004
435,김포통진점,경기,경기도 김포시 통진읍 김포대로 2230번길 21-10,031-989-5117
436,충주연수점,충북,충북 충주시 갱고개로 143(연수동) ,043-845-9778
437,서산테크노밸리점,충남,충남 서산시 성연면 성연3로 29,041-669-8242
438,영통역점,경기,경기 수원시 영통구 봉영로 1590(영통동) ,031-202-5558
439,안산한대역점,경기,경기도안산시 상록구 광덕1로 380,031-416-7889
440,거제상동점,경남,경남 거제시 상동5길 115,055-633-7272
441,대전복합터미널점,대전,대전 동구 동서대로 1688(성남동) ,042-621-0125
442,부산시청점,부산,부산광역시 연제구 중앙대로 1037(연산동),051-863-9282
443,광주태전점,경기,경기 광주시 고불로 46번길 4,031-763-6249
444,순천왕지점,전남,전남 순천시 왕궁중앙길 2,061-725-4141
445,서귀중앙점,제주,제주특별자치도 서귀포시 중앙로 69,064-762-8299
446,율하점3,경남,경상남도 김해시 율하2로 52,055-327-9282
447,금천은행나무점,서울,서울 금천구 금하로 726,02-892-3338
448,봉명아이파크점,충북,"충북 청주시 흥덕구 덕암로 108번길 65, 1층",043-900-7766
449,세종아름점,세종시,"세종특별자치시 보듬3로 100(아름동,해피라움1)",044-866-4288
450,신서귀포점,제주,제주 서귀포시 대청로 39,064-732-8299
451,서울등촌점,서울,서울 양천구 목동중앙북로7길 20 (서울 양천구 목동 602-15),02-2652-6842
452,광주경안점,경기,경기 광주시 경안로 17,031-762-7672
453,수유역점,서울,서울시 강북구 도봉로87길 7,02-992-5050
454,대전산성동점,대전,대전 중구 대둔산로 391,042-584-0151
455,해운대중동점,부산,"부산 해운대구 해운대로 732 1층(중동, 해운대경남아너스빌)",051-744-5882
456,석계역점,서울,서울 노원구 석계로1길 18,02-909-5892
457,화천사내점,강원,강원도 화천군 사내면 사내로 42,033-441-8890
458,서울대입구역점,서울,서울 관악구 관악로 192,02-877-0032
459,향남롯데시네마점,경기,경기 화성시 향남읍 상신하길로298번길 7-23,031-354-6858
460,시흥신천점,경기,경기 시흥시 신천3길 47(신천동) ,031-313-9292
461,수내역점,경기,경기 성남시 분당구 백현로 101번길,031-719-5007
462,설악워터피아점,강원,강원도 속초시 미시령로2983번길 111 ,*특수매장으로 일반전화가 없습니다
463,대전만년점,대전,대전 서구 만년로 67번길 34-11,042-489-9229
464,포항효자점,경북,경북 포항시 남구 효자동길 7번길 7,054-282-3339
465,공주터미널점,충남,충남 공주시 신관로 59(신관동) ,041-852-9288
466,목동역점,서울,서울 양천구 오목로 205,02-2608-8988
467,제물포점,인천,인천 미추홀구 경인로 131,032-888-1313
468,춘천석사CGV점,강원,강원 춘천시 퇴계농공로 22(석사동) ,033-263-9393
469,괴산점,충북,충북 괴산군 괴산읍 읍내로9길 7,043-833-9992
470,세종보람점,세종시,"세종시 남세종로 462 위너스타워 103,104호",044-866-9299
471,포항지곡점,경북,경북 포항시 남구 지곡로 253(지곡동) ,054-286-3131
472,수원매탄2점,경기,경기 수원시 영통구 매탄로 108번길 10,031-216-7745
473,무동점,경남,광주 창원시 의창구 북면 동곡로 5 ,055-294-7498
474,부산월내점,부산,부산 기장군 장안읍 월내2길 1,051-727-3335
475,분당서현점,경기,경기 성남시 분당구 불정로 376번길 7,031-703-1530
476,군포당동점,경기,경기 군포시 고산로 246,031-392-0408
477,김해진례점,경남,경남 김해시 진례면 송현로 21,055-345-1224
478,충북금왕점,충북,충북 음성군 금왕읍 무극로 269,043-877-4320
479,천안통정점,충남,충남 천안시 동남구 통정10로 33-10,041-569-4282
480,김해삼방점,경남,경남 김해시 활천로 267번길 30,055-322-4913
481,영통2호점,경기,경기 수원시 영통구 봉영로 1759번길 8-9,031-202-1171
482,관양점,경기,경기 안양시 동안구 관평로 330,031-388-0505
483,합천점,경남,경남 합천군 합천읍 동서로 83-1,055-932-7887 
484,청주오창점,충북,충북 청주시 청원구 오창읍 중심상업1로 8-9,043-213-3392
485,원주흥업점,강원,강원 원주시 흥업면 남원로 85,033-762-8200
486,동탄나루마을점,경기,경기 화성시 동탄솔빛로 61,031-613-3832
487,수지상현점,경기,경기 용인시 수지구 만현로 100,031-266-4959
488,수원권선점,경기,경기 수원시 권선구 동수원로 242번길 18,031-226-8582
489,천호로데오점,서울,서울 강동구 천호대로 157길 7,02-470-0789
490,광주소촌점,광주,광주 광산구 소촌로 152번길 1,062-942-1190
491,청주사직운천점,충북,충북 청주시 서원구 사직대로 267-1,043-260-4288
492,수택3점,경기,경기 구리시 체육관로 80번길 28,031-563-1230
493,강서구청점,서울,서울 강서구 화곡로 296,02-2690-9234
494,공주중동점,충남,충남 공주시 웅진로 153-2,041-855-0020
495,월성본동점,대구,대구 달서구 학산로7길 82,053-555-3517
496,원주혁신도시점,강원,강원 원주시 혁신로 55,033-746-7667
497,청주율량2지구점,충북,충북 청주시 청원구 주성로 295,043-222-1147
498,대전청사점,대전,대전 서구 문예로 137,042-483-9225
499,nc백화점부산대점,부산,부산 금정구 부산대학로 63번길 2,051-515-5838
500,부산부암점,부산,부산 부산진구 새싹로 83-2,051-809-5605
501,건대로데오점,서울,서울 광진구 아차산로 224,02-469-1939
502,경주양남점,경북,경북 경주시 양남면 동해안로 643,054-775-8230
503,울산유니스트대학점,울산,울산 울주군 언양읍 유니스트길 50,*특수매장으로 일반전화가 없습니다
504,동탄능동점,경기,경기 화성시 동탄지성로 142,031-613-7709
505,빛가람1호점,전남,전남 나주시 월정5길 1,061-333-2256
506,원주우산점,강원,강원 원주시 상지대길 56,033-732-9888
507,청주복대점,충북,충북 청주시 흥덕구 복대로 138-1(복대동) ,043-908-8007
508,병점중앙점,경기,경기 화성시 효행로 1059,031-235-7702
509,민락2지구점,경기,경기 의정부시 오목로 225번길 141,031-851-1080
510,대구북비산점,대구,대구 서구 달서로 177-1,053-525-9945
511,대구옥포점,대구,대구 달성군 옥포면 돌미로 36,053-611-4244 
512,기흥구청점,경기,경기 용인시 기흥구 구갈로 70,031-274-7744
513,삼문코아점,경남,경남 김해시 능동로 155번길 10-21  201호,055-312-8290
514,용인동백점,경기,경기도 용인시 기흥구 동백중앙로 265,031-287-1900
515,주엽점,경기,경기 고양시 일산서구 중앙로 1456,031-913-3333
516,파장시장점,경기,경기도 수원시 장안로 272-9(정자동 537-2),031-271-6133
517,노원로데오점,서울,서울 노원구 상계로3길 16,02-951-5155
518,명지국제신도시점,부산,부산 강서구 명지국제8로 257,051-201-2011
519,이월드점,대구,대구 달서구 두류공원로 200,053-654-7942
520,안산본오점,경기,경기도 안산시 상록구 샘골로 187,031-408-1569
521,개금사거리점,부산,부산 부산진구 개금온정로 6,051-898-0206
522,둔산교보문고점,대전,대전 서구 대덕대로 226 (둔산동 1362),042-487-2599
523,방촌점,대구,대구 동구 동촌로 196,053-981-5556
524,고읍점,경기,경기도 양주시 고읍남로 20-5(광사동 653),031-844-1371
525,군위점,경북,경북 군위군 군위읍 도군로 2717 ,054-382-9996
526,영통1호점,경기,경기 수원시 영통구 덕영대로 1555번길 13,031-206-8114
527,광교중앙점,경기,경기 수원시 영통구 에듀타운로 23,031-216-6555 
528,간석역점,인천,인천 남동구 주안로 231,032-423-3939
529,울산웅촌점,울산,울산 울주군 웅촌면 곡천동문길 10 ,052-249-4515
530,용인상현역점,경기,경기 용인시 수지구 광교중앙로 319,031-214-2202
531,광주금호점,광주,광주 서구 풍금로 171번길 5,062-654-5123
532,천안목천점,충남,충남 천안시 목천읍 충절로 901-1,041-555-9242
533,죽동점,대전,대전 유성구 죽동로 298번길 76,042-825-3558
534,광명소하점,경기,경기 광명시 소하로 81,02-897-2777
535,수원천천점,경기,경기 수원시 장안구 만석로 19번길 35,031-271-5225
536,김해서상점,경남,경남 김해시 가락로 96,055-328-9978
537,양주덕계점,경기,경기 양주시 평화로 1440,031-857-8322
538,삼육대점,서울,경기 남양주시 불암로 41-56,031-572-0572
539,이수점,서울,서울 동작구 동작대로 27길 15,02-533-6912
540,오송점,충북,충북 청주시 흥덕구 오송읍 오송생명로 196 ,043-233-1005
541,광주진월점,광주,광주 남구 서문대로 666,062-651-1300
542,동탄2신도시점,경기,경기 화성시 동탄대로 시범길 148-54,031-372-9147
543,광주봉선점,광주,광주 남구 봉선로 176(봉선동 109-8),062-651-9285
544,괴정휴포레점,부산,부산 사하구 사하로 183,051-206-6243
545,장승포점,경남,광주 거제시 능포로 114(능포동) ,055-681-6242
546,옥천점,충북,충북 옥천군 옥천읍 중앙로 56,043-733-1017
547,부산송정점,부산,부산 해운대구 송정광어골로 21(송정동) ,051-704-8283
548,삼호터미널점,전남,전남 영암군 삼호읍 방아제로 2,061-464-4282
549,신림역점,서울,서울 관악구 남부순환로 1599-3(신림동) ,02-889-3888
550,전주혁신도시점,전북,전북 완주군 이서면 안전로 163,063-227-1301
551,광주첨단점,광주,광주 광산구 첨단중앙로 96,062-971-9388
552,경희대로점,서울,서울 동대문구 경희대로 5-1,02-967-7733
553,김해신세계점,경남,경남 김해시 전하로 304번길 24,055-272-1291
554,김포고촌점,경기,경기 김포시 고촌읍 김포대로 344,031-986-6545
555,충남부여점,충남,충남 부여군 부여읍 중앙로 12 ,041-837-9288
556,외도점,제주,제주 제주시 우령2길 40,064-711-8299
557,경기과기대점,경기,경기 시흥시 경기과기대로 269 학생회관 2층,031-488-9882
558,와수리점,강원,강원 철원군 서면 와수로 167-1,033-458-9191
559,수원금곡점,경기,경기 수원시 권선구 금곡로 102번길 38,031-292-9864
560,상동점,전남,전남 목포시 옥암로 118,061-281-5790
561,49로데오점,경기,경기 시흥시 중심상가3길 10,031-433-6968
562,지사점,부산,부산 강서구 과학산단로 306번길 10,051-973-3803
563,아산둔포점,충남,충남 아산시 둔포면 둔포로 37,041-533-8826
564,양산평산이마트점,경남,경남 양산시 평산로 33,055-367-9284
565,온천장점,부산,부산 동래구 온천장로 119번길 7,051-555-1579
566,청주용담광장점,충북,충북 청주시 상당구 수영로 229 신우빌딩 1층,043-291-8948
567,제천장락점,충북,충북 제천시 신죽하로 53,043-642-4900
568,온양온천점,충남,충남 아산시 온궁로 27 ,041-533-9280
569,김천혁신도시점,경북,경상북도 김천시 혁신4로 9,054-433-4234
570,산청점,경남,경남 산청군 산청읍 꽃봉산로 91번길 27,055-974-9988
571,세종고운점,세종시,세종특별시 마음로 70,044-864-9289 
572,야당역점,경기,경기 파주시 경의로 1080,031-943-8080
573,순천역점,전남,전남 순천시 팔마로 124-1,061-744-9222
574,망월사역점,경기,경기 의정부시 평화로 206,031-874-8828
575,지웰시티점,충북,충북 청주시 흥덕구 대농로 68,043-237-3373
576,울진후포점,경북,경북 울진군 후포면 후포삼율로 98 ,054-787-6288
577,울산삼호초등학교점,울산,울산 남구 굴화4길 27,052-222-1131
578,태평역점,경기,경기 성남시 수정구 수정로 80,031-755-8847
579,구월아시아드점,인천,인천 남동구 인하로 627,032-469-0576
580,수지구청역점,경기,경기 용인시 수지구 수지로 296번길 51-9,031-263-7111
581,별내북부점,경기,경기 남양주시 별내3로 318,031-575-3353
582,청주산남점,충북,충북 청주시 서원구 산남로 54,043-283-7754
583,북마산점,경남,광주 창원시 마산합포구 북성로 91(상남동) ,055-222-5990
584,신영통점,경기,경기 수원시 영통구 영통로 136,031-206-0456
585,신탄진점,대전,대전 대덕구 신탄진로 809-1(신탄진동) ,042-931-3331
586,나주터미널점,전남,전남 나주시 나주로 185,061-332-7092
587,오남점,경기,경기 남양주시 진건오남로 551,031-527-7502
588,동탄반송점,경기,경기 화성시 동탄원천로 163,031-613-0662
589,김포구래점,경기,경기 김포시 김포한강9로76번길 63(구래동) ,031-996-9070
590,평택포승점,경기,경기 평택시 포승읍 여술2길 26,031-684-8281
591,웨스턴돔점,경기,경기 고양시 일산동구 정발산로 24,031-903-4467
592,대구현풍점,대구,대구 달성군 유가면 테크노상업로 100,053-611-0805
593,강릉내곡점,강원,강원 강릉시 남부로 17번길 23,033-645-2200
594,신월점,서울,"서울 양천구 가로공원로 123(신월동, 우진팰리스) ",02-2698-0117
595,신라대점,부산,부산 사상구 백양대로 700번길 140,070-5102-1538
596,청주용암2동점,충북,충북 청주시 상당구 월평로 222(용암동),043-292-3322
597,까치산점,서울,서울 강서구 강서로 42-1,02-2608-8482
598,충북영동점,충북,충북 영동군 영동읍 중앙로3길 7 ,043-744-4458
599,동부올림픽점,부산,부산 해운대구 해운대로 428,051-731-0558
600,천안성정점,충남,충남 천안시 서북구 성정공원3길 4,041-564-9288
601,수원조원점,경기,경기 수원시 장안구 송원로 83,031-207-2255
602,시지고산점,대구,대구 수성구 달구벌대로 3130,053-792-0222
603,신촌점,서울,서울 서대문구 명물길 16,02-313-7733
604,의왕역점,경기,경기 의왕시 철도박물관로 71,031-462-3887
605,청주사천점,충북,충북 청주시 청원구 율봉로 19,043-212-7755
606,부천카톨릭대점,경기,경기 부천시 원미구 지봉로 43,032-345-8892
607,안산선부점,경기,경기 안산시 단원구 선부광장1로 30(선부동),031-414-5557
608,금산중부대점,충남,충남 금산군 추부면 대학로 186,041-752-9289
609,파동점,대구,대구 수성구 파동로 284,053-766-5888
610,논산오거리점,충남,충남 논산시 중앙로 419,041-732-4241
611,부산신개금점,부산,부산 부산진구 개금본동로 39,051-893-9295
612,포항연일점,경북,경북 포항시 남구 연일읍 연일로 159번길 20,054-278-5759
613,안산원곡점,경기,경기 안산시 단원구 화랑로 107,031-402-1577
614,원주중앙점,강원,강원 원주시 원일로 115번길 10,033-748-7786
615,마산현동점,경남,경남 창원시 마산합포구 현동9길 14,055-241-9282
616,아라점,제주,제주 제주시 아란7길 4,064-755-8299
617,김해삼정점,경남,"경상남도 김해시 삼정동 599-1,1층",055-326-1840
618,세종어진점,세종시,세종시 절재로 194 (어진동 547),044-866-9278
619,동양미래대점,서울,서울 구로구 경인로47길 30(고척동) ,02-2688-8800
620,예산산성점,충남,충남 예산군 예산읍 역전로 148 ,041-332-7389
621,해군교육사령부점(3정문),경남,경남 창원시 진해구 대영동2번지(3정문 장병면회실내2층),055-907-2437
622,홍대점,서울,서울 마포구 와우산로 100,02-323-6631
623,김포수변점,경기,경기 김포시 김포한강2로23번길 10(장기동) ,031-985-4289
624,대전지족점,대전,대전 유성구 지족동로 160(지족동) ,042-825-3336
625,양산물금역점,경남,경남 양산시 물금읍 물금로 20,055-381-1818
626,음성읍내점,충북,충북 음성군 음성읍 시장로 69,043-872-9582
627,범계점,경기,경기 안양시 동안구 평촌대로223번길 65(호계동) ,031-387-0201
628,울산업스퀘어점,울산,울산 남구 화합로 185,052-256-0275
629,부산대북문점,부산,부산 금정구 금강로 335번길 16,051-581-2222
630,관저건양대점,대전,대전 서구 도안남로 142,042-542-0959
631,죽전새터마을점,경기,경기 용인시 수지구 현암로 121,031-898-3737
632,양구읍점,강원,강원 양구군 양구읍 양록길 71,033-482-9282
633,인천동암역점,인천,인천 부평구 동암남로 4(십정동) ,032-421-5542
634,오태북삼점,경북,경북 칠곡군 북삼읍 금오대로8길 6-2,054-972-5582
635,청주성화점,충북,충북 청주시 서원구 신화로 34(성화동),043-237-8311
636,청주용암점,충북,충북 청주시 상당구 낙영로24번길 24(용암동) ,043-284-2030
637,양평역점,경기,경기 양평군 양평읍 양평시장길 32,031-775-5900
638,천안차암점,충남,충남 천안시 서북구 밤개울2길 1-2(차암동) ,041-552-9288
639,대전관평점,대전,대전 유성구 관들1길 55(관평동) ,042-932-9939
640,아산장재점,충남,충남 아산시 배방읍 용연로 84-27,041-546-9788
641,세종cgv점,세종시,세종시 도움1로 108,044-864-9211
642,화북남문점,제주,제주 제주시 일주동로 192,064-702-4448
643,울산강동산하점,울산,울산 북구 화암1길 2 B102호,052-293-7898
644,진주점,경남,경남 진주시 진양호로 206(평거동) ,055-747-7075
645,창원용호점,경남,광주 창원시 의창구 원이대로589번길 6-2(용호동) ,055-289-7755
646,전주동산점,전북,전북 전주시 덕진구 쪽구름로 58(동산동) ,063-214-0652
647,황금점,대구,대구 수성구 청수로 160(지산동) ,053-768-1111
648,김포감정점,경기,경기 김포시 중봉로 6(감정동) ,031-981-5470
649,오창2산단점,충북,충북 청주시 청원구 오창읍 2산단로 134 ,043-211-0170
650,강릉입암점,강원,강원 강릉시 성덕포남로 45-8(입암동) ,033-651-8988
651,전주서부시장점,전북,전북 전주시 완산구 효동2길 9(효자동1가) ,063-227-3132
652,담양읍점,전남,전남 담양군 담양읍 죽향대로 1195,061-383-8993
653,화정로데오점,경기,경기 고양시 덕양구 화신로 260번길 33,031-938-3457
654,구리역점,경기,경기 구리시 건원대로 34번길 15,031-558-8982
655,송탄점,경기,경기 평택시 관광특구로 37(서정동) ,031-668-2501
656,아산음봉점,충남,충남 아산시 음봉면 음봉로 529,041-542-9280
657,논산내동점,충남,충남 논산시 중앙로 212(내동) ,041-736-9288
658,광주풍암점,광주,광주광역시 서구 풍암2로 20,062-675-3536
659,다랭이마을점,경남,경남 남해군 남면 남면로 994(선구리 499-1번지),055-864-1133
660,경주첨성대점,경북,경북 경주시 첨성로 161(인왕동) ,054-771-5888
661,제주시청점,제주,제주 제주시 서광로 298(이도이동) ,064-725-9282
662,대진대점,경기,경기 포천시 호국로 1007-15,031-541-7772
663,진주초장점,경남,경남 진주시 초장로 14번길 24,055-761-6717
664,연동점,제주,제주 제주시 삼무로 59(연동) ,064-744-7979
665,고창읍점,전북,전북 고창군 고창읍 중앙로 230,063-564-0555
666,교하점,경기,경기 파주시 청석로 260,031-941-6668
667,갈현점,서울,서울 은평구 연서로27길 5(갈현동) ,02-389-5566
668,공항신도시점,인천,인천 중구 신도시남로141번길 9(운서동) ,032-747-0057
669,평택소사벌점,경기,경기 평택시 평남로 941(비전동) ,031-652-7750
670,자인점,경북,경북 경산시 자인면 설총로 939 ,053-854-7959
671,용호자이점,부산,부산 남구 신선로 566,051-621-9402
672,대전전민점,대전,대전 유성구 유성대로 1738,042-864-0775
673,아산탕정점,충남,충남 아산시 탕정면 탕정면로 54-6 ,041-544-4249
674,수원아주대점,경기,경기 수원시 팔달구 아주로 47,031-216-1007
675,의정부역점,경기,경기 의정부시 신흥로 240번길 26,031-877-8982
676,고잔신도시점,경기,경기 안산시 단원구 광덕동로 61(고잔동) ,031-403-8892
677,울산굴화장검점,울산,울산 울주군 범서읍 장검 1길 40,052-975-0505
678,경주중앙점,경북,경북 경주시 동성로 111(노동동) ,054-776-9797
679,선문대생활관점,충남,충남 아산시 탕정면 선문로 221번길 70,041-545-9294
680,대전아쿠아리움점,대전,대전 중구 보문산공원로 469,042-224-4008
681,성신여대점,서울,서울 성북구 동소문로22길 30(동선동1가) ,02-929-2582
682,충남금산점,충남,충남 금산군 금산읍 인삼로 65,041-753-9226
683,포항이동점,경북,경북 포항시 남구 대이로 169,054-272-9971
684,김포풍무점,경기,경기 김포시 풍무로 102,031-984-7889
685,대전송촌점,대전,대전 대덕구 계족산로 81번길 59-9(송촌동),070-5043-1453
686,목포장미공원점,전남,전남 목포시 비파로 35-1(상동) ,061-282-8338
687,완주봉동점,전북,전북 완주군 봉동읍 과학로 1033 ,063-263-2010
688,팽성점,경기,경기 평택시 팽성읍 동서촌로 54 ,031-691-8825
689,경주동천점,경북,경북 경주시 동천로 64,054-775-8778
690,천안직산점,충남,충남 천안시 서북구 직산읍 삼은3길 10 ,041-587-9288
691,장안점,서울,서울 동대문구 답십리로 302(장안동) ,02-2249-5818
692,청도점,경북,경북 청도군 청도읍 청화로 132,054-373-9959
693,시흥은행점,경기,경기 시흥시 은행로155번길 11(은행동) ,031-311-3567
694,신철원점,강원,강원 철원군 갈말읍 삼부연로7번길 6 ,033-452-7737
695,대전목동점,대전,대전 중구 동서대로 1387-6(목동) ,042-224-4222
696,청천점,인천,인천 부평구 세월천로 63(산곡동),032-517-4731
697,안동옥동점,경북,경북 안동시 경북대로 423 ,054-859-8977
698,밀양중앙점,경남,경남 밀양시 약산로 54-1,055-356-6633
699,순천오천점,전남,전남 순천시 오천3길 36,061-725-6000
700,청라1호점,인천,인천 서구 중봉대로612번길 10-17(청라동) ,032-561-1447
701,평택청북점,경기,경기 평택시 청북읍 안청로2길 33-36,031-682-8084
702,울산과학대,울산,울산 남구 대학로37번길 12(무거동),052-249-4292
703,중문점,제주,제주 서귀포시 중문상로 27(중문동) ,064-738-8299
704,성건점,경북,경북 경주시 동대로 18(성건동),054-748-8777
705,울진죽변점,경북,경북 울진군 죽변면 죽변북로 47-6,054-783-9688
706,장항점,충남,충남 서천군 장항읍 장항로145번길 12,041-956-4288
707,전주평화점,전북,전북 전주시 완산구 소대배기로 17(평화동2가) ,063-229-3122
708,광주문흥점,광주,광주 북구 대천로 140-8(문흥동) ,062-265-0082
709,양산석계점,경남,경상남도 양산시 상북면 반회서6길 2 ,055-374-0401
710,외동입실점,경북,경북 경주시 외동읍 입실로 72,054-777-5002
711,제천신백점,충북,충북 제천시 의병대로 245(신백동) ,043-648-9588
712,과천점,경기,경기 과천시 중앙로 131(중앙동) ,02-502-0042
713,신원마을점,경기,경기 고양시 덕양구 신원로 36,02-371-3202
714,안지랑역점,대구,대구 남구 대명로 144-1,053-629-6200
715,북부정류장점,대구,대구 서구 서대구로 302,053-353-7982
716,창원감계점,경남,경남 창원시 의창구 북면 감계로110번길 54-31,055-299-1649
717,천안두정역점,충남,충남 천안시 서북구 두정로 230,041-556-9288
718,덕소점,경기,경기도 남양주시 와부읍 덕소로 116,031-576-9783
719,청주가경점,충북,충북 청주시 흥덕구 서부로 1307(가경동) 미젼빌딩 104. 105,043-233-0993
720,제천하소점,충북,충북 제천시 용두대로 15길 18-1,043-647-9688
721,안산초지점,경기,경기 안산시 단원구 광덕1로 56,031-402-2037
722,용인단대점,경기,경기도 용인시 수지구 죽전로144번길 12-1,031-898-2002
723,봉덕점,대구,대구 남구 효성로 52,053-475-5666
724,대구진천점,대구,"대구 달서구 진천로 78, 1층102호",053-382-8585
725,충무공점,경남,경남 진주시 충의로 20-17(충무공동) ,055-752-4090
726,한양대점,서울,서울 성동구 마조로 31(행당동) ,02-2291-8982
727,서일대점,서울,서울 중랑구 용마산로 408(면목동) ,02-491-9600
728,범어사역점,부산,부산 금정구 중앙대로 2102,051-581-3121
729,전주객사점,전북,전북 전주시 완산구 팔달로 187-1(경원동1가) ,063-288-0085
730,동명대점,부산,부산 남구 신선로 428(동명대 가온누리관),051-466-7245
731,만촌메트로점,대구,대구 수성구 화랑로 74(만촌동) ,053-755-3393
732,고령점,경북,경북 고령군 대가야읍 우륵로 16-1,054-955-9933
733,군산수송점,전북,전북 군산시 수송6길 3(수송동) ,063-461-7780
734,진량중앙점,경북,경북 경산시 진량읍 공단로 469 ,053-852-3572
735,무안읍점,전남,전남 무안군 무안읍 불무로 38-3 ,061-454-2700
736,아산배방점,충남,충남 아산시 배방읍 배방로 181 ,041-546-9288
737,신대부적점,경북,경북 경산시 압량면 압독2로1길 38 ,053-817-7989
738,양산증산이마트점,경남,경남 양산시 물금읍 야리로 45,055-367-8498
739,광주동천점,광주,광주 서구 유림로 100,062-524-0077
740,조치원역점,세종시,세종시 조치원읍 으뜸길 226,044-862-3535
741,인천관교점,인천,인천 남동구 문화서로4번길 2,032-424-7888
742,음성혁신도시점,충북,충북 음성군 맹동면 대하로 273,043-881-6467
743,대전둔산점,대전,대전 서구 문예로 37(둔산동) ,042-472-9982
744,삼풍계양점,경북,경북 경산시 삼풍로 4(삼풍동) ,053-801-0045
745,강릉대학로점,강원,강원 강릉시 신대학길 32(금학동) ,033-647-0855
746,천안불당점,충남,충남 천안시 서북구 검은들3길 46(불당동) ,041-553-9288
747,울산진하점,울산,울산 울주군 서생면 진하해변길 66,052-239-2885
748,보령2호점,충남,충남 보령시 중앙로 64(대천동) ,041-933-0980
749,안동삼산점,경북,경북 안동시 서동문로 174-8,054-855-8978
750,포항흥해점,경북,경북 포항시 북구 흥해읍 흥해로 29 ,054-614-5882
751,대구화원점,대구,대구 달성군 화원읍 비슬로 2583 ,053-643-1212
752,안산중앙역점,경기,경기 안산시 단원구 고잔2길 38(고잔동) ,031-411-4561
753,수성시장점,대구,대구 수성구 들안로 275-1(수성동2가) ,053-741-3777
754,충북증평점,충북,충북 증평군 증평읍 중앙로 197번지 1호,043-838-6400
755,동의대지천관점,부산,부산 부산진구 엄광로 176 동의대지천관 1층,051-898-4203
756,대구중동점,대구,대구 수성구 수성로 214(중동) ,053-763-5242
757,일산탄현점,경기,경기 고양시 일산서구 일현로 48(탄현동) ,031-919-7877
758,옥산점,경북,경북 경산시 성암로 45(옥산동) ,053-812-2131
759,전곡점,경기,경기 연천군 전곡읍 전곡로 152,031-835-7750
760,영선점,부산,부산 영도구 남항로 49번길 43,051-412-2088
761,덕두점,부산,부산 강서구 공항로 811번가길 51(대저2동 1991-1),051-971-8963
762,반월당점,대구,"대구 중구 중앙대로67길 10(남산동, 반월당삼정그린코아아파트)",053-428-7555
763,평택역점,경기,경기 평택시 중앙2로 8(평택동) ,031-654-7756
764,당하점,인천,인천 서구 청마로167번길 7(당하동) ,032-563-3398
765,동양점,인천,인천 계양구 당미1길 26(동양동) ,032-556-0010
766,전주인후점,전북,전북 전주시 덕진구 건산로 246(인후동1가) ,063-242-4909
767,부개일신점,인천,인천 부평구 동수로 180-1(부개동),032-228-0606
768,문막점,강원,강원 원주시 문막읍 왕건로 48 ,033-735-6084
769,수원북문점,경기,경기 수원시 장안구 정조로 917(영화동) ,031-251-7666
770,대구장기점,대구,대구 달서구 장기로 243(장기동) ,053-521-7377
771,부산대청점,부산,부산 중구 대청로 94,051-245-1836
772,대전유성점,대전,대전 유성구 계룡로 84(봉명동) ,042-361-1101
773,포천신읍점,경기,경기 포천시 구절초로 14-1(신읍동 27-25),031-535-9214
774,통영점,경남,광주 통영시 안개로 4(북신동) ,055-641-1333
775,행신햇빛마을점,경기,경기 고양시 덕양구 충장로 134(행신동 943-1),031-938-1446
776,백운역점,인천,인천 부평구 경원대로 1274(부평동) ,032-236-1006
777,대곡도원점,대구,대구 달서구 한실로 67,053-631-3200
778,원당어울림점,경기,경기 고양시 덕양구 고양대로 1384번길 7-5,031-967-8982
779,인제신남점,강원,강원 인제군 남면 신남로 58번길 21,033-462-8657
780,당진합덕점,충남,충남 당진시 합덕읍 합우로 134-1 ,041-363-9288
781,여천에코하이츠점,울산,울산 남구 산업로339번길 38-28(선암동),052-265-2669
782,식사점,경기,경기 고양시 일산동구 위시티2로 11번길 11,031-963-7277
783,대전문창점,대전,대전 중구 대종로 302(문창동) ,042-272-6686
784,양산물금점,경남,경남 양산시 물금읍 황산로 709,055-388-5590
785,울진점,경북,경북 울진군 울진읍 연호로 12,054-781-9288
786,일산동점,경기,경기 고양시 일산서구 산현로 92번길 60,031-917-9282
787,구남역점,부산,부산 북구 백양대로 1018,051-332-0519
788,인천신현점,인천,인천 서구 가정로 359(신현동) ,032-578-0001
789,청라호수공원점,인천,인천 서구 옥빛로7번안길 7,032-561-9920
790,백양점,부산,부산 사상구 백양대로 502,051-311-4774
791,진천읍내점,충북,충북 진천군 진천읍 상산로 84 ,043-533-7771
792,대명계대점,대구,대구 남구 현충로 266(대명동) ,053-654-7771
793,삼례우석대점,전북,전북 완주군 삼례읍 삼례로 422 ,063-291-2912
794,부천원미점,경기,경기 부천시 원미로 126(원미동) ,032-662-4279
795,울산대왕암점,울산,울산 동구 등대로 99 대왕암상가,052-234-3250
796,수원성균관대점,경기,경기 수원시 장안구 서부로 2128(율전동) ,031-298-8305
797,중동현대점,경기,경기 부천시 소향로 127(중동) ,032-321-3929
798,용인송담대점,경기,경기 용인시 처인구 마평동 동부로 61,*특수매장으로 일반전화가 없습니다
799,대구강남약국점,대구,대구 동구 신암로 96,053-944-0606
800,부천송내역점,경기,경기 부천시 송내대로 35(송내동) ,032-655-0223
801,만수역점,인천,인천 남동구 구월로 364(만수동) ,032-465-8474
802,양산통도사점,경남,경상남도 양산시 하북면 신평7길,055-383-0335
803,경북백천점,경북,경북 경산시 경청로 1105,053-817-9277
804,명일점,서울,서울 강동구 구천면로 428,02-426-1233
805,포천운천점,경기,경기 포천시 영북면 운천리 운천로 22,031-533-2262
806,청주분평점,충북,충북 청주시 서원구 1순환로1107번길 17(분평동) ,043-902-4107
807,양산석산점,경남,경남 양산시 동면 금오 13길 4(석산리 1457-1),055-382-7272
808,송도글로벌캠퍼스점,인천,"인천 연수구 송도문화로28번길 28(송도동, 송도글로벌캠퍼스푸르지오) 203-103",032-814-8488
809,여수엑스포점,전남,전남 여수시 박람회길 1,061-666-9555
810,김포장기점,경기,경기 김포시 김포한강1로51번길 36(장기동) ,031-985-6663
811,남원도통점,전북,전북 남원시 용성로 215(도통동) ,063-635-4292
812,도농점,경기,경기 남양주시 도농로 29,031-553-8853
813,관산점,경기,경기 고양시 덕양구 통일로 760,031-963-9005
814,간석점,인천,인천 남동구 남동대로 881(간석동) ,032-439-9955
815,대구이곡점,대구,대구 달서구 이곡공원로1길 81(이곡동) ,053-583-7982
816,대구동호점,대구,대구 동구 동호로 75,053-956-9772
817,정관모전점,부산,부산 기장군 정관읍 모전1길 6-37,051-728-2585
818,중산마을점,경기,경기 고양시 일산동구 탄중로 324,031-976-6320
819,청주율량점,충북,충북 청주시 청원구 율봉로 224,043-214-7402
820,인제서화점,강원,강원 인제군 서화면 서화길 4-7,033-463-9279
821,철원동송점,강원,강원 철원군 동송읍 이평2로 14,033-455-8884
822,통영죽림점,경남,광주 통영시 광도면 죽림1로 17-37 ,055-642-5456
823,대구서부터미널점,대구,"대구 달서구 월배로 497, 1~2동 (송현동)",053-475-4242
824,신정푸르지오점,울산,울산 남구 중앙로 290(신정동) ,052-258-8007
825,장유롯데마트점,경남,경남 김해시 삼문로 15,055-311-0519
826,부산역점,부산,부산 동구 중앙대로 207(초량동) ,051-442-2347
827,면목점,서울,서울 중랑구 면목로 306(면목동) ,02-432-9692
828,부안읍점,전북,"전북 부안군 부안읍 석정로 227, 2층",063-581-4282
829,부송어양점,전북,전북 익산시 부송1로 74(부송동) ,063-833-0110
830,대구월배점,대구,대구 달서구 상원로 103(진천동) ,053-634-0303
831,대구금호점,대구,"대구 북구 한강로 55(사수동, 대구금호엘에이치천년나무1단지) 104-105",053-321-6665
832,포항문덕점,경북,경북 포항시 남구 오천읍 원동로 102-1,054-293-4244
833,전주호성점,전북,전북 전주시 덕진구 호성3길 12(호성동1가) ,063-243-9288
834,대전월평점,대전,대전 서구 월평동 청사서로 40,042-471-9939
835,영주중앙점,경북,경북 영주시 구성로 345(영주동) ,054-634-9002
836,창녕점,경남,경남 창녕군 창녕읍 종로 50,055-533-5336
837,천안쌍용3동점,충남,충남 천안시 서북구 쌍용8길 2(쌍용동) ,041-575-9588
838,운정2호점,경기,경기 파주시 미래로 602번길 35,031-943-8008
839,삼척대학로점,강원,강원 삼척시 진주로 39,033-574-5000
840,부산가야역점,부산,부산 부산진구 가야대로 613,051-892-5277
841,인천서구청점,인천,인천 서구 탁옥로51번길 2(심곡동) ,032-568-1191
842,문산당동점,경기,경기 파주시 문산읍 방촌로 1733,031-952-4100
843,전남화순점,전남,전남 화순군 화순읍 광덕로 193-1 ,061-375-8592
844,강릉교동점,강원,강원도 강릉시 교동 솔올로 79,033-653-8899
845,알펜시아점,강원,강원 평창군 대관령면 솔봉로 325 오션700,
846,인천검암점,인천,인천 서구 승학로 515(검암동) ,032-562-8488
847,울산신천점(매곡신천점),울산,울산 북구 매곡1로 46(매곡동) ,052-292-5567
848,산본점,경기,경기 군포시 광정로 68(산본동) 2층,031-393-8009
849,달동월드메르디앙점(구신정1호점),울산,울산 남구 신정로 75,052-227-1252
850,고양서정마을점,경기,경기도 고양시 덕양구 서정마을1로 20-10 1층(행신동 1079-2),031-971-8399
851,양산남부시장점,경남,경상남도 양산시 북안남4길 7-37(북부동) ,055-363-4777
852,경주충효점,경북,경북 경주시 충효녹지길 34,054-743-8884
853,수원매탄점,경기,경기 수원시 영통구 인계로 255-1(매탄동) ,031-217-8868
854,간석만월산점,인천,"인천 남동구 호구포로 917(간석동), 2층",032-441-7942
855,김포운양점,경기,"경기 김포시 김포한강11로 288-19(운양동), 108호",031-982-9273
856,경북사동점,경북,경북 경산시 백자로53(사동),053-801-1421
857,금릉역점,경기,"경기 파주시 금빛로 24-18, 거성프라자 202호, 203호",031-948-1011
858,원주무실점,강원,"강원 원주시 능라동길 63(무실동), 201호",033-732-5592
859,구미신평점,경북,경북 구미시 신비로 19(신평동) ,054-463-7788
860,익산모현점,전북,전북 익산시 고현로 96(모현동1가) ,063-851-4898
861,대구동대구점,대구,대구 동구 동부로22길 8(신천동) ,053-755-3357
862,대구두류점,대구,대구 달서구 달구벌대로 1728(두류동) ,053-213-9942
863,부산연지점,부산,"부산 부산진구 새싹로 177, 상가 106동 107호",051-808-1567
864,부산장림점,부산,부산 사하구 다대로 247(장림동 산 29-4),051-263-2800
865,전남과학대점,전남,전남 곡성군 옥과면 대학로 114 ,061-363-0027
866,금호점,서울,서울 성동구 독서당로 296-1(금호동4가) ,02-2292-5002
867,구미형곡점,경북,경북 구미시 신시로7길 29(형곡동) ,054-457-1882
868,울산천곡점,울산,울산 북구 아진로 80(상안동) ,052-297-9992
869,구미선산점,경북,경북 구미시 선산읍 선산중앙로 95 ,054-481-4900
870,안양1번가점,경기,경기 안양시 만안구 안양로 304번길 4,031-464-3338
871,대구경일대점,경북,"경북 경산시 하양읍 가마실길 46, 2층",053-816-4242
872,대구성당점,대구,대구 달서구 당산로 118(성당동) ,053-655-8582
873,제주중앙로점,제주,제주 제주시 중앙로 60 중앙지하상가 127호,064-755-4882
874,고대타이거프라자점,서울,서울 성북구 안암로 145 타이거프라자 1층,02-926-2622
875,여수전남대점(구여수미평점),전남,"전남 여수시 대학로 31(미평동), 2층",061-655-3111
876,세븐밸리점,대구,대구 북구 동암로 90(동천동) ,053-326-9797
877,인천가좌점,인천,"인천 서구 건지로 402, 가좌한신휴플러스 상가 403동 105호",032-577-4731
878,주안신기점,인천,"인천 미추홀구 신기길 1, 2층",032-861-0979
879,가평읍점(구가평점),경기,경기 가평군 가평읍 가평제방길 129 ,031-581-5556
880,부산신호점,부산,부산 강서구 신호산단2로 21 (신호동215),051-941-6788
881,양산북정동점,경남,경상남도 양산시 북정로 19(북정동) ,055-387-7772
882,제주대정점,제주,제주 서귀포시 대정읍 상모로 302,064-792-9299
883,대전은행동점,대전,대전시 중구 대종로 480번길 40,042-222-9288
884,천안백석동점,충남,충남 천안시 서북구 한들3로 78-3(백석동) ,041-566-9288
885,홍성대학로점,충남,충남 홍성군 홍성읍 대학길 49 ,041-632-0245
886,제천세명대점,충북,충북 제천시 세명로 47(모산동) ,043-644-8824
887,금오공대점,경북,경북 구미시 대학로 52,054-476-9958
888,곡성읍점,전남,전남 곡성군 곡성읍 군청로 51,061-362-3377
889,부산명장점,부산,부산 동래구 반송로 271(명장동) ,051-526-2221
890,한국영상대점,세종시,세종시 장군면 대학길 242(금암리 192),휴점 중
891,대구대현점,대구,대구 북구 경대로7길 36(대현동) ,053-955-4242
892,대구용산점,대구,대구 달서구 용산로 230(용산동) ,053-564-4243
893,해운대해수욕장점,부산,부산 해운대구 구남로 26-1(우동) ,051-892-9233
894,창녕남지점,경남,광주 창녕군 남지읍 동포로 47 ,055-521-3369
895,인천옥련점,인천,인천 연수구 독배로 53 영인빌딩 2층,032-834-8255
896,고양풍동점,경기,경기도 고양시 일산동구 숲속마을 1로77(풍동 1274),031-905-9555
897,충대중문점,충북,충북 청주시 서원구 내수동로102번길 36(사창동),043-265-9770
898,고양동점,경기,경기도 고양시 덕양구 혜음로 27(고양동 226),031-938-9724
899,부산금정체육공원점,부산,부산광역시 금정구 체육공원로 399번길 324(두구동),051-508-9195
900,하남신장점,경기,경기 하남시 신장로 119-2(신장동) ,031-819-1004
901,대전관저점,대전,대전 서구 관저동로 71(관저동) ,042-544-8808
902,부산학장점,부산,부산광역시 사상구 대동로 61(학장동),051-312-9955
903,영주가흥점,경북,경북 영주시 대동로 36(가흥동) 1동 2호,054-635-9001
904,부산경상대점,부산,부산 연제구 고분로 143번길 3,051-867-2346
905,대구호산점,대구,대구 달서구 호산동로35북길 26(호산동) ,053-591-4244
906,광주대점,광주,광주 남구 효덕로 280(진월동) ,062-671-0026
907,화성향남점,경기,경기 화성시 향남읍 행정중앙2로 33 ,031-352-5096
908,경산역점,경북,경북 경산시 중앙로 7,053-818-3777
909,전주서신점,전북,전북 전주시 완산구 유연로 278(중화산동2가) ,063-224-2220
910,대구교대점,대구,대구 남구 중앙대로 243(대명동) ,053-657-5228
911,연성점,경기,경기 시흥시 장곡로 31-1(장곡동) ,031-404-9291
912,전남광양읍점,전남,전남 광양시 광양읍 대림오성로 136,061-761-3800
913,광주화정점,광주,광주 서구 월드컵4강로 92,062-651-9282
914,청주성안점,충북,충북 청주시 상당구 상당로81번길 57,043-223-6767
915,(신)양산중부점,경남,경남 양산시 양산역1길 12 2층,055-372-2201
916,대구동구청점,대구,대구 동구 아양로39길 6(신암동) ,053-944-4242
917,울산일산점,울산,울산 동구 방어진순환도로 627(일산동) ,052-233-9666
918,우정점,울산,울산 중구 우정3길 4(우정동) ,052-246-5244
919,삼계점,경남,경남 김해시 가야로169번길 5 103호,055-311-9555
920,전남대점,광주,광주 북구 우치로 86(용봉동) ,062-251-0900
921,부산초량점,부산,"부산광역시 동구 초량중로 87(초량동,1층)",051-442-2348
922,부산벡스코점,부산,"부산광역시 해운대구 센텀2로 15 (우동,센텀브라이언빌딩 102-1호)",051-746-8123
923,울산장현점,울산,울산 중구 종가로 735(장현동) ,052-295-3339
924,행신역점,경기,경기 고양시 덕양구 충경로 52,031-973-1050
925,부천괴안점,경기,경기 부천시 범안로 55(괴안동) 홈타운프라자 102호,032-345-7982
926,동춘점,인천,인천 연수구 앵고개로264번길 40(동춘동) ,032-813-5279
927,옥현주공점,울산,울산광역시 남구 옥현로 46번길 5-2(무거동),052-277-0880
928,고신대점,부산,부산광역시 영도구 와치로 246(동삼동),051-405-7733
929,동주대점,부산,부산광역시 사하구 낙동대로 154(괴정동),051-204-2757
930,인천연수점,인천,인천 연수구 샘말로7번길 3(연수동) ,032-818-8255
931,만수2호점,인천,인천 남동구 만수서로83번길 26(만수동) ,032-462-9279
932,마두백마점,경기,경기도 고양시 일산동구 일산로249(마두동),031-908-9982
933,대구중앙로점,대구,대구광역시 중구 중앙대로 389(동성로3가),053-422-4243
934,문현점,부산,부산광역시 남구 수영로 21(문현동),051-632-5055
935,구서역점,부산,부산광역시 금정구 중앙대로 1841번길 29(구서동),051-517-9242
936,내포신도시점,충남,"충청남도 홍성군 홍북읍 충남대로 50 아르페온2차 109호, 110호",041-634-9280
937,영대병원점 ,대구,대구 남구 대명로 282(대명동) ,053-657-4242
938,부천역곡점,경기,경기 부천시 부일로 714 에스프러스 101호,032-345-7300
939,명동점,서울,서울 중구 명동8길 26(명동2가) ,02-777-6073
940,제천점,충북,충북 제천시 의림대로 112,043-653-8982
941,대전문화점,대전,대전 중구 문화로 212(문화동) ,042-584-4259
942,대구침산점,대구,대구 북구 침산남로 140(침산동) ,053-341-4478
943,구미역점,경북,경북 구미시 구미중앙로 100(원평동) 1층,054-444-2285
944,합성점,경남,경남 창원시 마산회원구 양덕북4길 11(합성동) 2층,055-293-8259
945,계산역점,인천,인천 계양구 경명대로 1083(계산동) ,032-543-1255
946,운정1호점,경기,경기도 파주시 와석순환로 133 형성프라자 1층 106호 ,031-945-6368
947,영광점,전남,전남 영광군 영광읍 중앙로 191-4,061-351-0894
948,동덕여대점,서울,서울 성북구 화랑로 13길 7,02-909-6638
949,부천역점,경기,"경기도 부천시 소사구 성주로 263(심곡본동,1층)",032-666-2925
950,울산송정점,울산,울산광역시 북구 화산중앙로 94-5(화봉동 1466),052-285-4226
951,원흥지구점,경기,경기도 고양시 덕양구 도래울 2로 3,031-962-1280
952,서동점,부산,부산 금정구 서동로 158-2(서동) ,051-523-5550
953,양정점,울산,울산 북구 염포로 581(양정동) ,052-288-9277
954,만촌점,대구,대구광역시 수성구 만촌동 854-34,053-742-1669
955,야탑1호점,경기,경기 성남시 분당구 벌말로40번길 3(야탑동) ,031-709-5353
956,한라대점,제주,제주시 한라대학로 76(노형동),064-747-9299
957,밀양삼문점,경남,경남 밀양시 미리벌중앙로1길 17(삼문동) ,055-354-2448
958,소명점,경기,경기 부천시 부흥로 461-1(소사동) ,032-351-0285
959,칠곡점,대구,대구 북구 학정로 429(동천동) 105동,053-313-9955
960,감천점,부산,부산광역시 사하구 감천로 41(감천동),051-293-9285
961,선암점,울산,울산 남구 두왕로190번길 55(선암동) ,052-257-5151
962,울산혁신도시점,울산,울산 중구 종가4길 19(유곡동) ,052-246-9244
963,천안터미널사거리점 ,충남,충남 천안시 동남구 만남로 50(신부동) 터미널프라자 101호,041-566-9277
964,오산공군기지점,경기,경기 평택시 신장동 298-19 (공군작전사령부내) 2층,031-669-4377
965,목원대점 ,대전,대전 서구 도안북로 107(도안동) 210호,042-825-8838
966,마장점,서울,서울 성동구 마장로 301(마장동) ,02-6160-8982
967,해남점 ,전남,전남 해남군 해남읍 구교2길 26,061-537-3382
968,율하중앙점,경남,경남 김해시 율하3로 41(율하동) ,055-323-2260
969,영월점 ,강원,강원도 영월군 영월읍 중앙로 69,033-375-9282
970,김제점 ,전북,전라북도 김제시 화동길 17,063-547-4909
971,부평구청점 ,인천,인천 부평구 길주남로 13-1(부평동) ,032-504-2244
972,밀양하남점,경남,경남 밀양시 하남읍 시동3길 7 ,055-391-1777
973,부산재송점,부산,부산광역시 해운대구 재반로 79(재송동),051-783-9797
974,재능대점,인천,인천 동구 새천년로38번길 11 동산휴먼시아 상가동 207호,032-764-5580
975,양주백석점,경기,경기 양주시 백석읍 호명로 84 ,031-873-0330
976,울주언양점,울산,울산 울주군 언양읍 읍성로 115 ,052-254-9987
977,구례점,전남,전남 구례군 구례읍 봉성로 53,061-781-5553
978,충장점,광주,광주 동구 충장로 80-9,062-227-3456
979,제주대점,제주,"제주특별자치도 제주시 제주대학로 115 (아라이동,1층)",064-726-9299
980,다대2호점,부산,부산광역시 사하구 다대낙조1길 5(다대동),051-263-0055
981,호평역점,경기,"경기도 남양주시 호평로 33,1층 177-1",031-591-8588
982,임학점,인천,인천 계양구 장제로 887(임학동) ,032-547-1233
983,용호점,부산,부산광역시 남구 용호로 158(용호동),051-612-5757
984,서울시립대점,서울,"서울 동대문구 전농로 222(전농동, 씨티빌라트) 1층",02-2245-9292
985,과기대점,서울,서울 노원구 공릉로 223(공릉동),02-978-8292
986,광안해변점,부산,"부산광역시 수영구 광안해변로 229,103(민락동)",051-755-9233
987,원주연세대점,강원,강원도 원주시 흥업면 연세대길1(연세대학교 학생회관,033-766-4974
988,원광대점,전북,전북 익산시 익산대로70길 39(신동) ,063-852-0125
989,인하대점,인천,인천 미추홀구 경인남길30번길 53,032-875-5542
990,한국외대글로벌점,경기,경기도 용인시 처인구 모현면 외대로 81 한국외대 3층,031-330-4944
991,수원대점,경기,"경기 화성시 봉담읍 와우안길 22, 2동",031-239-1009
992,문수로아이파크점,울산,울산 남구 봉월로28번길 19-1 협성휴포레 112호,052-960-9292
993,신포점,인천,인천 중구 개항로 28-3(신포동) ,032-765-5050
994,수성구청점,대구,대구 수성구 달구벌대로 2494 장미아파트상가 101호,053-742-4243
995,반여2호점 ,부산,부산 해운대구 재반로 215,051-784-2210
996,장산역점,부산,부산해운대구해운대로 814 세종월드프라자 145호,051-702-5003
997,대동사거리점,부산,부산 해운대구 좌동순환로 175(좌동) 대아프라자 107호,051-702-3336
998,수정점,부산,부산 동구 중앙대로371번길 23(수정동) ,051-441-7582
999,모라점,부산,부산 사상구 백양대로 916 우성아파트상가 117호,051-326-9982
1000,경복대점,경기,경기도 남양주시 진접읍 경복대로 434 1층,031-529-1553
1001,당감점,부산,부산 부산진구 당감로 53-2(당감동) ,051-894-8886
1002,고흥점,전남,전남 고흥군 고흥읍 고흥로 1800,061-832-3310
1003,전주대점,전북,전라북도 전주시 완산구 서원로 8 (효자동3가),063-225-3600
1004,지산점,대구,대구광역시 수성구 지범로 170,053-784-3645
1005,호남대점,광주,"광주 광산구 선운로5(선암동,2층202호)",062-942-3939
1006,당진기지시점,충남,충남 당진시 송악읍 기지시1길62(오문빌딩),041-353-9282
1007,김포사우점,경기,경기 김포시 사우중로 79(북변동) 1층 104호,031-985-8186
1008,대전보건대점,대전,대전 동구 우암로 324(가양동) ,042-622-3998
1009,창원신월점(신월사파점),경남,경남 창원시 의창구 신사로 41(신월동) ,055-264-0046
1010,유곡점,울산,울산광역시 중구 유곡동 평동1길 42,052-248-0815
1011,인천송도점,인천,인천 연수구 컨벤시아대로 69(송도동) 1층 124호,032-858-7595
1012,당진읍내점,충남,충남 당진시 당진중앙2로 117-36, 041-357-9277
1013,안면터미널점,충남,충남 태안군 안면읍 장터로 129,041-673-8895
1014,하단가락점,부산,부산 사하구 하신번영로 209(하단동) ,051-205-2223
1015,강릉포남점,강원,강원 강릉시 하평3길 40(포남동) ,033-653-8592
1016,중동역점,경기,경기 부천시 부일로 322(중동) ,032-613-3946
1017,칠곡석적점,경북,경북 칠곡군 석적읍 유학로 42-1,054-977-8230
1018,서천점,충남,충남 서천군 서천읍 서천로 139 ,041-953-9288
1019,함덕점,제주,제주시 조천읍 함덕로 38,064-783-9299
1020,안락점,부산,부산광역시 동래구 명장로 133-1(안락동),051-522-3666
1021,아이스퀘어점,경남,경남 김해시 김해대로 2342 c301-2호,055-903-7332
1022,율하관동점,경남,경상남도 김해시 율하3로91번길 14-17(관동동),055-325-6692
1023,울산대송점,울산,울산광역시 동구 학문로 71,052-234-2002
1024,신태화점,울산,울산 중구 태화로 194(태화동) ,052-244-9001
1025,신홍성터미널점,충남,충남 홍성군 홍성읍 조양로 247번길 9,041-631-9288
1026,만수3지구점,인천,인천 남동구 장승남로 41(만수동) ,032-466-8300
1027,신구미송정점,경북,경북 구미시 박정희로 599,054-444-2289
1028,대구율하광장점,대구,대구 동구 안심로22길 46(율하동) ,053-963-7005
1029,하양점,경북,경북 경산시 하양읍 하양로 47 ,053-216-6100
1030,이천점,경기,경기 이천시 어재연로37번길 4(창전동) ,031-637-2172
1031,화명롯데점,부산,부산 북구 금곡대로303번길 35(화명동) ,051-365-1566
1032,송우점,경기,경기도 포천시 소흘읍 솔모루로 30,031-544-8592
1033,대천해수욕장점,충남,충남 보령시 머드로 137(신흑동),041-933-9281
1034,다운점,울산,울산 중구 다운로 113(다운동) ,052-222-9400
1035,구미구평점,경북,경북 구미시 인동36길 9(구평동) ,054-472-2711
1036,경북대점,대구,대구 북구 대학로17길 5(산격동) ,053-944-5582
1037,김천평화점,경북,경북 김천시 김천로 75(평화동) ,054-437-9933
1038,당리점,부산,부산광역시 사하구 제석로 66(당리동),051-293-7666
1039,신송현점,대구,"대구광역시 달서구 월배로75길69(송현동,1층)",053-555-9953
1040,상인점,대구,대구 달서구 월곡로 261-1(상인동) ,053-635-1989
1041,배재대점,대전,대전 서구 도마로 2(도마동) ,042-538-2225
1042,청주대점,충북,충북 청주시 청원구 대성로288번길 59,043-223-3392
1043,순천호수공원점,전남,"전남 순천시 왕지2길 19-5(왕지동,2층)",061-725-4292
1044,창원봉림점,경남,경남 창원시 의창구 대봉로 24(봉림동) 애플타운 201호,055-288-4205
1045,만덕점,부산,부산 북구 덕천로281번길 30(만덕동) ,051-987-9292
1046,석동점,경남,경남 창원시 진해구 석동로 51 세븐코아bd 109-111,055-546-4249
1047,서면1번가점,부산,부산광역시 진구 중앙대로 687 한성빌딩1층,051-817-3363
1048,영산대점,부산,부산광역시 해운대구 반송 순환로 141,051-545-9888
1049,성결대점,경기,경기도 안양시 만안구 안양동 성결대학로 38,031-8033-8668
1050,마전점,인천,인천광역시 서구 마전동 621-3 정우프라자 103호,032-561-5953
1051,상동역점,경기,경기 부천시 상동로 109(상동) ,032-328-1004
1052,남포동점,부산,부산광역시 중구 구덕로 48번길 3,051-244-5482
1053,부산대2호점,부산,부산광역시 금정구 금정로60번길31,051-582-4240
1054,응암점,서울,서울특별시 은평구 증산로 473,02-303-9804
1055,광양중동점,전남,전남 광양시 광장1길 17,061-793-2262
1056,부산교대점,부산,"부산광역시 연제구 교대로7(거제동,1층)",051-506-9192
1057,오산대점,경기,경기도 오산시 청학로 39(청학동),031-378-4545
1058,순천중앙점,전남,"전라남도 순천시 중앙로 110-2(중앙동,1층)",061-752-1515
1059,천상점,울산,울산시 울주군 범서읍 천상중앙길 104,052-244-2977
1060,진동점,경남,경남 창원시 마산합포구 진동면 진북산업로 23 ,055-271-9203
1061,천안두정점,충남,충남 천안시 서북구 두정로 173,041-567-9588
1062,이도점,제주,제주시 이도2동 구남로 6길 36,064-752-9282
1063,아산용화점,충남,"충남 아산시 어의정로 46(용화동, 온천마을아파트) ",041-547-9277
1064,연삼로점,제주,제주시 연삼로 503(이도이동),064-756-9299
1065,서대신점,부산,부산광역시 서구 구덕로321번길 10,051-244-3232
1066,홍익대세종캠퍼스점,세종시,세종특별자치시 조치원읍 섭골골목길 19-5(외1필지),044-867-9288
1067,녹양점,경기,경기 의정부시 녹양로62번길 9(녹양동) 1층,031-837-8822
1068,가능역점,경기,경기 의정부시 신흥로 359(가능동) 1층,031-871-7745
1069,신계산본점,인천,인천광역시 계양구 계산새로 93 102호,032-556-8088
1070,계대동문점,대구,대구 달서구 계대동문로 14(신당동) ,053-587-5551
1071,태안점,충남,충남 태안군 태안읍 동문1길 73,041-673-8892
1072,함양점,경남,"경남 함양군 함양읍 고운로 60-1, 2층",055-962-9233
1073,부산신반여점,부산,부산광역시 해운대구 선수촌로 81-1(반여동),051-523-1531
1074,한남대점,대전,"대전광역시 대덕구 한남로12번길 43(오정동,1층)",042-626-9998
1075,광양용강점,전남,전라남도 광양시 광양읍 용강로 47,061-761-3009
1076,논산건양대점,충남,충남 논산시 은진면 대학로 134 ,041-742-9288
1077,혜천대점,대전,"대전광역시 서구 복수남로38,101(복수동)",042-586-0292
1078,우송대점,대전,대전 동구 동대전로 165(자양동) ,042-639-0008
1079,홍성법원점,충남,충남 홍성군 홍성읍 법원로 10 ,041-633-9299
1080,여수중앙점,전남,전남 여수시 중앙로 48,061-641-3739
1081,강촌점,강원,강원 춘천시 남산면 강촌로 82 ,033-264-5885
1082,가재울2점,서울,서울시 서대문구 수색로100 DMC래미안E상가 203동7호,02-302-9677
1083,호계점,울산,울산 북구 동대중앙로 15(호계동) ,052-292-3013
1084,한밭대점,대전,대전 유성구 학하서로121번길 178(덕명동) ,042-826-5020
1085,진해중앙점,경남,경남 창원시 진해구 벚꽃로 71(화천동) ,055-552-6002
1086,강남대점,경기,경기 용인시 기흥구 강남로 3(구갈동) ,031-275-3078
1087,수진역점,경기,"경기도 성남시 중원구 광명로 119, 1층 (성남동)",031-752-7773
1088,정왕점,경기,경기 시흥시 함송로14번길 5-16(정왕동) 한양코아 1층,031-497-9288
1089,이시아폴리스점,대구,대구광역시 동구 팔공로 250 (이시아 스타107호),053-984-7942
1090,천안백석대점,충남,충남 천안시 동남구 문암로 74-4 201(안서동),041-568-9288
1091,고려대세종캠퍼스점,세종시,세종 조치원읍 내창1길 36,044-868-9288
1092,서산한서대점,충남,충남 서산시 해미면 한서1로 30 궁전빌딩1,041-688-9288
1093,반지반림점,경남,경남 창원시 성산구 반송로 58(반지동) ,055-289-9285
1094,경성대점,부산,부산 남구 수영로 313(대연동) ,051-612-2298
1095,정관1호점,부산,부산 기장군 정관읍 정관로 499 드림빌딩 101,051-727-4282
1096,명지점,부산,부산 강서구 명지오션시티4로 82(명지동) 리치몬드프라자 103,051-208-7788
1097,대구다사점,대구,대구 달성군 다사읍 달구벌대로 805 ,053-587-2357
1098,서경대점,서울,서울 성북구 서경로 94(정릉동) ,02-910-8892
1099,구영리점,울산,울산 울주군 범서읍 점촌3길 8-2 ,052-211-4292
1100,산호점,경남,경남 창원시 마산합포구 합포로 250,055-246-3038
1101,무선점,전남,전라남도 여수시 무선중앙로 7-1(화장동),061-685-9282
1102,남외점,울산,울산 중구 남외3길 7(남외동) , 052-296-9242
1103,창원신촌점,경남,경남 창원시 성산구 신촌로 83 양곡상가아파트 라-108호,055-286-2576
1104,구월1점,인천,인천 남동구 용천로 87(구월동) 흥인빌딩 103호,032-464-0418
1105,구미옥계점,경북,경북 구미시 옥계북로 26(옥계동) 101호,054-471-3038
1106,서면점,부산,부산 부산진구 중앙대로692번길 25(부전동) 2층,051-804-8011
1107,안양연성대점,경기,경기 안양시 만안구 양화로37번길 21(안양동) 1층,031-8091-5050
1108,전북대점,전북,전북 전주시 덕진구 명륜4길 4(덕진동1가) 2층,063-252-0054
1109,원주롯데시네마점,강원,강원 원주시 서원대로 406(단구동) 리더스타워206호,033-765-5010
1110,거제엠파크점,경남,경남 거제시 고현로11길 20(고현동) 엠파크 201호,055-632-8357
1111,중동미리내점,경기,경기 부천시 소향로 225(중동) 디아뜨 b동108호,032-321-1382
1112,순천신대점,전남,전남 순천시 해룡면 향매로 124 ,061-811-3004
1113,신평점,충남,충남 당진시 신평면 거산3거리길 37,041-363-9277
1114,천안단국대점,충남,충남 천안시 동남구 단대로 113-5,041-578-9288
1115,벌교점,전남,전남 보성군 벌교읍 계성1길 12-1 ,061-858-3300
1116,카톨릭대점,부산,부산 금정구 오륜대로 41(부곡동) ,051-516-9192
1117,양정대학로점,부산,부산 부산진구 양정로 11번길5 1층,051-867-7799
1118,(신)전하점,울산,울산 동구 전하로 35 한라한빛상가 104동 105호,052-234-9284
1119,양산서창점,경남,경남 양산시 삼호2길 50(삼호동) ,055-365-1088
1120,명촌점,울산,울산 북구 명촌10길 27,052-287-8592
1121,(신)포항오천점,경북,경북 포항시 남구 오천읍 세계길 41,054-291-0028
1122,팔용점,경남,경남 창원시 의창구 팔용로 438(팔용동) 팔용종합상가 209호,055-295-9282
1123,경남정보대점,부산,부산 사상구 가야대로 366번길 65(주례동),051-312-9191
1124,반구중앙여고점,울산,울산 중구 내황2길 26(반구동) ,052-286-3004
1125,옥동점,울산,울산 남구 법대로95번길 16(옥동) ,052-267-3392
1126,신삼산현대점,울산,울산 남구 돋질로 305(삼산동) ,052-257-8242
1127,천안성거점,충남,충남 천안시 서북구 성거읍 성거길 94,041-565-9277
1128,공업탑점,울산,울산 남구 수암로 15-6(신정동) ,052-227-9282
1129,천안상명대점,충남,충남 천안시 동남구 상명대길 32(안서동 2층),041-522-9242
1130,산곡1점,인천,인천 부평구 부영로189번길 51(산곡동) 오남프라자 108호,032-514-0077
1131,덕계점,경남,경남 양산시 덕계로 52(덕계동) ,055-388-0121
1132,상산효자점,전북,전북 전주시 완산구 거마평로 125 비사벌상가 2동 109,063-222-4945
1133,천안신방점,충남,충남 천안시 동남구 수곡로 61,041-575-5292
1134,사직점,부산,부산 동래구 사직북로 3 백진빌딩 2층,051-507-1588
1135,(신)내서호계점,경남,경남 창원시 마산회원구 내서읍 호계본동로 18 코오롱 2차 1동 202호,055-294-7477
1136,남악도청점,전남,전라남도 무안군 삼향읍 남악4로82번길 13(88빌딩),061-285-9959
1137,산기대점,경기,경기 시흥시 산기대학로 237 스마트허브산학융합 1층,031-319-9289
1138,(신)목포대점,전남,전남 무안군 청계면 승달산길 35,061-454-3939
1139,당진터미널점,충남,충남 당진시 밤절로 132-81(수청동) ,041-356-9288
1140,원주단구점,강원,강원 원주시 단구로 391(단구동) ,033-765-8980
1141,충남대점,대전,대전 유성구 궁동로 8-1(궁동) ,042-825-9259
1142,(신)목동2점,서울,서울 양천구 등촌로 62-1(목동) ,02-2649-1530
1143,충주교통대점,충북,충북 충주시 대소원면 검단리 78-8,043-847-0095
1144,경남데파트점,경남,경남 창원시 마산합포구 3·15대로 255(중앙동3가) ,055-242-7288
1145,화봉동점,울산,울산 북구 두부곡4길 24(연암동) ,052-288-0020
1146,남천점,부산,부산 수영구 수영로464번길 21,051-900-7786
1147,군산대점,전북,전북 군산시 미제2길 19(미룡동) ,063-465-9280
1148,양산범어점,경남,경남 양산시 물금읍 범어로 62 ,055-382-2200
1149,순천연향점,전남,전남 순천시 이수로 293(조례동) ,061-726-3600
1150,아산득산점,충남,충남 아산시 온천대로 1105-13(득산동) ,041-531-9298
1151,수원역점,경기,경기 수원시 팔달구 매산로 1가 47-4,031-256-3830
1152,부평본점,인천,"인천 부평구 장제로 58(부평동, 헤리움) ",032-508-9279
1153,창원도계점,경남,"경남 창원시 의창구 도계로 63(도계동, 중앙상가연립), 104호",055-237-1425
1154,왜관점,경북,경북 칠곡군 왜관읍 중앙로8길 9-1 ,054-972-3038
1155,(신)서울공항점,경기,경기 성남시 수정구 고등동 1 ,031-721-3554
1156,별내1점,경기, 경기 남양주시 별내5로 23번길 4-9,031-571-9295
1157,천안공주대점,충남,충남 천안시 서북구 천안대로 1220(신당동),041-554-3392
1158,남목동점,울산,울산 동구 동해안로 50(동부동) ,052-252-7999
1159,삼송동산고점,경기,경기도 고양시 덕양구 동세로 22-2 아크리온 빌딩  102호,02-381-9252
1160,(신)내서삼계점,경남,경남 창원시 마산회원구 내서읍 삼계4길 8 오아시스빌딩 302호,055-232-8295
1161,숙명여대점,서울,서울 용산구 청파로47길 79(청파동2가) ,02-719-0812
1162,포항양덕점,경북,경북 포항시 북구 천마로 91(양덕동) ,054-255-3038
1163,영진전문대점,대구,대구 북구 복현로 31(복현동) ,053-583-2262
1164,창원대산점,경남,경남 창원시 의창구 대산면 진산대로 389 ,055-291-9100
1165,작전점,인천,인천 계양구 주부토로 372(작전동) ,032-345-5571
1166,신나사렛대점,충남,충남 천안시 서북구 월봉로 83(쌍용동) ,041-578-9902
1167,성안점,울산,울산 중구 성안로 184(성안동) ,052-246-4243
1168,논현역점,인천,인천 남동구 앵고개로 847번길 51,032-422-9280
1169,부천대점,경기,경기 부천시 원미구 부천로39번길44 2층,032-611-8636
1170,덕정점,경기,경기 양주시 독바위로 77 203호,031-858-9281
1171,순천금당점,전남,전남 순천시 하대석길 41(연향동) ,061-726-4959
1172,신광안1호점,부산,부산 수영구 광안동 호암로 18-2,051-757-9282
1173,부원점,경남,경남 김해시 호계로472번길 39-9(부원동) ,055-333-5677
1174,진해용원점,경남,경남 창원시 진해구 용원서로39번길 16(용원동) ,055-544-3236
1175,창신대점,경남,경남 창원시 마산회원구 구암남10길 40(구암동) ,055-263-3106
1176,부산대점,부산,부산 금정구 장전동 부산대학로 63번길 34,051-515-0516
1177,노량진2점,서울,서울 동작구 노량진로14가길 14(노량진동) ,02-812-6842
1178,강릉터미널점,강원,강원 강릉시 하슬라로 27(홍제동) ,033-642-9526
1179,쌍용1점,충남,충남 천안시 서북구 봉서5길 4,041-576-9985
1180,울산대점,울산,울산 남구 신복로21번길 17-1(무거동),052-224-9282
1181,부개점,인천,인천 부평구 부흥북로 123(부개동) ,032-502-1900
1182,동아대점,부산,부산 사하구 하단동 낙동대로 516번길 47 2층,051-904-2991
1183,휘경점,서울,서울 동대문구 망우로 74(휘경동) ,02-925-6868
1184,구미인동점,경북,경북 구미시 인동중앙로 37(황상동) 2층 201호,054-475-3038
1185,부천상동점,경기,경기 부천시 조마루로 87 늘푸른상가 1층,032-328-3555
1186,휘경여고점,서울,서울 동대문구 한천로 242(전농동) ,02-2241-7080
1187,신해운대신도시점,부산,"부산 해운대구 대천로67번길 15(좌동, 신성아파트) 신성상가 113호",051-731-2922
1188,김해구산점,경남,경남 김해시 김해대로1902번길 55(구산동) ,055-331-3210
1189,거제장평점,경남,경남 거제시 장평로 8길 25 1층,055-632-9020
1190,수암홈플러스점,울산,울산광역시 남구 수암로 143,052-267-9888
1191,서산호수공원점,충남,충남 서산시 호수공원4로 48(예천동) ,041-667-9288
1192,송천점,전북,전북 전주시 덕진구 시천로 46(송천동1가) ,063-253-9295
1193,동서대점,부산,부산  사상구  주례로45 동서대학교 학생프라자 ,
1194,공주대신관점,충남,충남 공주시 번영1로 116-8(신관동) ,041-858-9288
1195,남해점,경남,경남 남해군 남해읍 망운로10번길 4 ,055-864-2040
1196,성균관대점,서울,서울 종로구 명륜3가 53 경영관 지하2층,*특수매장으로 일반전화가 없습니다
1197,후평동점,강원,강원 춘천시 후석로 326,033-241-1212
1198,광영점,전남,전남 광양시 가야로 328,061-794-4292
1199,안중점,경기,경기 평택시 안중읍 안현로 서6길 66(3호),031-681-8585
1200,창원대점,경남,경남 창원시 의창구 퇴촌로25번길 6-21(사림동) ,055-286-3231
1201,부민점,부산,부산 서구 구덕로 220(부민동1가) 한웅캠퍼스타워 102,051-242-8899
1202,주월동점,광주,광주 남구 회서로22번가길 1(주월동) ,062-651-9233
1203,(신)만천점,강원,강원 춘천시 동면 장학길 12 ,033-241-7992
1204,속초교동점,강원,강원 속초시 교동 번영로 39,033-635-8959
1205,효가점,강원,강원 동해시 효자남길 62(동회동) ,033-522-3100
1206,충북대학점,충북,충북 청주시 서원구 1순환로 686,043-265-7770
1207,(신)롯데시네마점,경북,경북 포항시 북구 중앙상가길 16(대흥동) 롯데시네마 1층,054-232-4279
1208,완도점,전남,"전남 완도군 완도읍 개포로145번길 7-4, 101호",061-554-0050
1209,신세종첫마을점,세종시,세종시 누리로 54 (한솔동 첫마을@ C상가 B 112호),044-863-9288
1210,명동지하상가점,강원,강원 춘천시 중앙로 33 명동지하상가 D열 11호,033-242-9288
1211,광주조선대점,광주,광주 동구 필문대로 273번길 32,062-226-1289
1212,세종부강점,세종시,세종 부강면 부강4길 4-1 ,044-275-0199
1213,학익동점,인천,인천 미추홀구 한나루로357번길 5-22,032-861-7272
1214,원지점,경남,경남 산청군 신안면 원지로 36-9,055-974-3357
1215,기장점,부산,"부산 기장군 기장읍 읍내로 103, 2층",051-721-7892
1216,거창점,경남,"경남 거창군 거창읍 아림로 32-1, 2층",055-945-7181
1217,장흥점 ,전남,전남 장흥군 장흥읍 부동로 18 ,061-864-0042
1218,진도점,전남,"전남 진도군 진도읍 옥주길 20, 101동 201호",061-544-4292
1219,한기대점,충남,충남 천안시 동남구 병천면 충절로 1594 ,041-558-5385
1220,강원홍천점,강원,강원 홍천군 홍천읍 번영로 2 ,033-432-9294
1221,(신)삼호점,전남,전남 영암군 삼호읍 신항로 106,061-463-8282
1222,상모점,경북,경북 구미시 상사서로 73(상모동) ,054-462-9555
1223,도계강원대점,강원,강원 삼척시 도계읍 황조길 346 강원대 도계캠퍼스,033-541-7771
1224,국민대점,서울,서울 성북구 정릉로 77 공학관 1층,
1225,대전노은동점,대전,대전 유성구 노은로 144 노은타운 116호,042-825-9477
1226,보령점,충남,충남 보령시 동대동 주공로 17,041-933-9901
1227,(신)운남하남점,광주,광주 광산구 사암로340번안길 6(월곡동) 수산빌딩 106호,062-959-1289
1228,진영신도시점,경남,경남 김해시 진영읍 김해대로361번길 3 골든프라자 104호,055-345-7792
1229,광주송정점,광주,광주 광산구 광산로 14(송정동) ,062-942-1192
1230,대구보건대점,대구,대구 북구 영송로 12(태전동) ,053-295-3038
1231,우두점,강원,강원 춘천시 영서로 2755(우두동) ,033-253-9288
1232,삼화점,제주,제주 제주시 화삼북로2길 9(화북일동) ,064-755-9292
1233,인제대점,경남,경남 김해시 인제로 194(어방동) ,055-335-9982
1234,광주운암점,광주,광주 북구 황계로 55번길 8,062-515-8292
1235,부산송도점,부산,부산 서구 암남공원로 39 풍림아이원 109호,051-257-8585
1236,노량진1점,서울,서울 동작구 만양로14라길 2(노량진동) ,02-815-3339
1237,경남대점,경남,"경남 창원시 마산합포구 월영북로 8-1, 1층(대내동) ",055-221-1190
1238,양주자이점,경기,경기 양주시 삼숭로38번길 80(삼숭동) ,031-841-1008
1239,(신)경상대점,경남,"경남 진주시 진주대로 500(가좌동), 2층",055-753-7799
1240,충주건대점,충북,"충북 충주시 충원대로 266 (단월동,해오름학사1층)",043-857-9800
1241,두호점,경북,경북 포항시 북구 용두산길 32(두호동) ,054-254-3492
1242,외동덕산점,경남,경남 김해시 함박로119번길 23(외동) ,055-334-7878
1243,(신)거제아주점,경남,경상남도 거제시 아주로 36,055-681-3693
1244,마석점,경기,경기 남양주시 화도읍 마석로71번길 1 ,031-511-0056
1245,고잔점,경기,경기 안산시 단원구 당곡1로 27(고잔동) 103호,031-475-9245
1246,(신)사천점,경남,경남 사천시 사천읍 평화1길 15 ,055-852-2266
1247,울산성남점,울산,울산 중구 젊음의2거리 33(성남동) ,052-248-3388
1248,대연점,부산,부산 남구 수영로 239,051-611-8812
1249,광주쌍촌점,광주,광주 서구 내방로161번길 1(쌍촌동) ,062-374-9200
1250,강진점,전남,"전남 강진군 강진읍 영랑로 3길 6-1, 1층",061-433-9979
1251,울산서부점,울산,울산 동구 방어진순환도로 995-2(서부동) ,052-251-5587
1252,(신)화천점,강원,강원 화천군 화천읍 상승로 46-1,033-442-7755
1253,(신)하안점,경기,경기 광명시 오리로 801 e편한세상나상가 105호,02-899-9233
1254,호원점(회룡역점),경기,경기도 의정부시 외미로 99 (회룡역),031-873-3129
1255,(신)호서대점,충남,충남 아산시 배방읍 호서로79번길 2,041-542-9111
1256,매곡점,울산,울산광역시 북구 매산로 66 222동 ,052-296-8592
1257,상주점,경북,경북 상주시 삼백로 121(서문동) ,054-536-4292
1258,문경점,경북,경북 문경시 매봉2길 9(모전동) ,054-554-4242
1259,방이점,서울,서울 송파구 백제고분로48길 39(방이동) ,02-420-5985
1260,진주교대점,경남,경남 진주시 진양호로 340(신안동) ,055-746-3457
1261,잠실1호점,서울,"서울 송파구 백제고분로 187(잠실동, 파크인-수) ",02-424-1229
1262,수원경희대점,경기,경기도 용인시 기흥구 서그내로 15번길 33,031-205-5400
1263,수완점,광주,광주 광산구 풍영로200번길 63(장덕동) ,062-959-3392
1264,안성중앙대점,경기,경기 안성시 대덕면 대학3길 31 ,031-677-9245
1265,거제중곡점,경남,"경남 거제시 중곡로 35(고현동), 동진빌딩 2층",055-632-9339
1266,포천일동점,경기,경기 포천시 일동면 화동로 1045-1 ,031-532-9996
1267,(신)진주상대점,경남,경남 진주시 동진로 199(상대동) ,055-757-0088
1268,함안점,경남,"경남 함안군 가야읍 가야로 54-1, 2층",055-585-4488
1269,부천중동1점,경기,"경기 부천시 길주로 315(중동), 뉴월드타운 101호",032-325-9902
1270,부경대점,부산,부산 남구 용소로21번길 62,051-612-9220
1271,소사본점,경기,경기 부천시 소사로 136(소사본동) ,032-351-9282
1272,대방점,경남,"경남 창원시 성산구 가양로124번길 15(대방동), 대암빌딩 205호",055-266-3232
1273,우동점,부산,부산 해운대구 우동1로 79(우동) ,051-747-9296
1274,서원대점(구분평수곡점),충북,"충북 청주시 서원구 서원남로 49-1(모충동), 2층",043-291-5001
1275,대안점,경남,"경남 진주시 촉석로190번길 9-1(대안동), 2층",055-744-5559
1276,보건대점,경남,"경남 진주시 창렬로126번길 4-5(상봉동), 2층",055-741-8878
1277,(신)효자점,강원,강원 춘천시 서부대성로 247,033-256-7992
1278,인천삼산점,인천,"인천광역시 부평구 체육관로 18, 104(삼산동,대경프라자)",032-507-9982
1279,신보광동점,서울,서울 용산구 장문로 83-1(보광동) ,02-793-8892
1280,(신)산정점,전남,전남 목포시 청호로 165(산정동),061-278-3568
1281,주문진점,강원,강원 강릉시 주문진읍 연주로 319,033-661-4858
1282,광양중마점,전남,전남 광양시 구마4길 24(중동) ,061-791-3692
1283,동서울대점,경기,경기 성남시 수정구 복정로 86(복정동) ,031-751-0027
1284,서귀동홍점,제주,제주특별자치도 서귀포시 동홍중앙로 51,064-767-9282
1285,(신)천곡점,강원,강원 동해시 대학로 16(천곡동) 골든타워 106호,033-531-8999
1286,강원대점,강원,강원 춘천시 강원대학길 1(효자동) 강원대 천지관 2층,033-250-7344
1287,정하점,경북,경북 안동시 강남1길 98-19,054-856-5577
1288,남창점,울산,울산 울주군 온양읍 연안8길 28,052-238-9255
1289,하대점,경남,경남 진주시 도동로 213(하대동) 1층,055-754-0777
1290,삼천포점,경남,경남 사천시 삼상로 111(벌리동) ,055-833-3883
1291,(신)안심점,대구,대구 동구 율하동로23길 21(율하동) ,053-962-3033
1292, 협재점,제주,제주 제주시 한림읍 한림로 322,064-796-3527
1293,경북영천점,경북,경북 영천시 모란2길 22-6(야사동) ,054-333-1197
1294,진주산업대점,경남,"경남 진주시 동진로 29(칠암동), 2층",055-752-7566
1295,청평점,경기,경기 가평군 청평면 청평중앙로72번길 20-1,031-585-4478
1296,(신)시흥능곡점,경기,"경기 시흥시 승지로 7, 신안인스빌아파트(12블럭)상가 101호",031-317-9251
1297,(신)의성점,경북,경북 의성군 의성읍 군청길 41 ,054-834-4343
1298,용현동점,인천,"인천 미추홀구 매소홀로 171, 신창아파트 상가 103호",032-882-5582
1299,신구대점,경기,경기 성남시 중원구 광명로 377(금광동) ,031-734-5421
1300,정읍점,전북,전북 정읍시 조곡천1길 74-3(시기동) ,063-534-9292
1301,석사점,강원,강원 춘천시 공지로 155(석사동) ,033-264-7992
1302,신가신창점,광주,광주 광산구 왕버들로252번길 15(신창동) ,062-956-9282
1303,태백점,강원,강원 태백시 황지로 26(황지동) ,033-552-9925
1304,도당여월점,경기,"경기 부천시 삼작로380번길 21(원종동, 황산빌라) ",032-683-8712
1305,여주점,경기,경기 여주시 여흥로 146,031-886-9282
1306,송추점,경기,경기 양주시 장흥면 호국로 559-1,031-826-6811
1307,안성1점,경기,경기 안성시 안성맞춤대로 1074(대천동) ,031-674-9245
1308,(신)목동점,서울,서울 양천구 오목로54길 10(목동) 영보빌딩 104호,02-2062-8292
1309,여천점,전남,"전남 여수시 쌍봉로 29, 2층",061-683-1123
1310,화명점,부산,부산 북구 학사로 17번길 19 수정마을 상가 110호,051-342-8292
1311,월피부곡점,경기,경기 안산시 상록구 태마당로1길 21 금신부곡빌딩 105호,031-406-4122
1312,노형점,제주,제주 제주시 광평동로 66 중흥S클래스상가 101호,064-712-2828
1313,반포점,서울,서울 서초구 신반포로 49 반포상가 M동 9호,02-534-0206
1314,구포점,부산,부산 북구 시랑로 43(구포동) ,051-336-5152
1315,일도동문점,제주,제주 제주시 동문로 55(건입동) ,064-702-9933
1316,덕성여대점,서울,서울 강북구 한천로 1182(수유동) ,02-993-3400
1317,남서울대점,충남,"충남 천안시 서북구 성환읍 성진로 65, 201(대학빌딩2층)  ",041-582-1992
1318,일산후곡점,경기,경기도 고양시 일산서구 일산로 526(일산동1081-1),031-917-8844
1319,석전양덕점,경남,경남 창원시 마산회원구 석전동6길 2,055-298-0110
1320,덕신점,울산,울산 울주군 온산읍 영남5길 5 ,052-239-9253
1321,망원역점,서울,서울 마포구 월드컵로 13길 13,02-323-5285
1322,곤양점,경남,경남 사천시 곤양면 곤양로 115 ,055-854-3474
1323,상관신리점,전북,전북 완주군 상관면 신리로 97 지큐빌아파트상가 109호,063-231-9949
1324,수원오목천점,경기,경기 수원시 권선구 삼천병마로 1566번길 26 (오목천동 452-2),031-295-4457
1325,문수점,전남,전남 여수시 여서로 174,061-651-1991
1326,순천대점(구순천북부점),전남,전남 순천시 중앙로 242-1,061-754-9282
1327,내외점,경남,경남 김해시 금관대로1190번길 59-3(외동) ,055-337-9982
1328,와동점,경기,경기 안산시 단원구 와동공원로 57-1(와동) ,031-483-1414
1329,경주금장점,경북,경북 경주시 현곡면 안현로 6 ,054-775-3382
1330,오산시청점,경기,경기 오산시 운암로 19 (원동 811-10),031-377-6262
1331,전주금암점 ,전북,전북 전주시 덕진구 백제대로 642(금암동) ,063-253-5689
1332,상지대점,강원,강원 원주시 상지대길 83 상지대학교 동악관,033-744-7382
1333,오이도점,경기,경기 시흥시 옥터로 56,031-433-9282
1334,군산나운점,전북,전북 군산시 수송로 42(나운동) ,063-461-4800
1335,엄궁점,부산,부산 사상구 엄궁로 144 코오롱아파트 상가 201호,051-326-4816
1336,충주2점,충북,충북 충주시 금봉4길 16(용산동) ,043-845-9282
1337,동신대점,전남,전남 나주시 건재로 185 동신대학교 첨단 강의관2층,061-330-2922
1338,전남장성읍점,전남,전남 장성군 장성읍 영천로 177,061-394-3944
1339,진천점,충북,"충북 진천군 이월면 진광로 121, 부영아파트상가 105호",043-534-9292
1340,봉곡점,경북,경북 구미시 봉곡남로 102,054-451-6126
1341,수성점,대구,대구 수성구 달구벌대로456길 19,053-742-6886
